"STATION","DATE","REPORT_TYPE","SOURCE","AWND","BackupDirection","BackupDistance","BackupDistanceUnit","BackupElements","BackupElevation","BackupElevationUnit","BackupEquipment","BackupLatitude","BackupLongitude","BackupName","CDSD","CLDD","DSNW","DailyAverageDewPointTemperature","DailyAverageDryBulbTemperature","DailyAverageRelativeHumidity","DailyAverageSeaLevelPressure","DailyAverageStationPressure","DailyAverageWetBulbTemperature","DailyAverageWindSpeed","DailyCoolingDegreeDays","DailyDepartureFromNormalAverageTemperature","DailyHeatingDegreeDays","DailyMaximumDryBulbTemperature","DailyMinimumDryBulbTemperature","DailyPeakWindDirection","DailyPeakWindSpeed","DailyPrecipitation","DailySnowDepth","DailySnowfall","DailySustainedWindDirection","DailySustainedWindSpeed","DailyWeather","HDSD","HTDD","HeavyFog","HourlyAltimeterSetting","HourlyDewPointTemperature","HourlyDryBulbTemperature","HourlyPrecipitation","HourlyPresentWeatherType","HourlyPressureChange","HourlyPressureTendency","HourlyRelativeHumidity","HourlySeaLevelPressure","HourlySkyConditions","HourlyStationPressure","HourlyVisibility","HourlyWetBulbTemperature","HourlyWindDirection","HourlyWindGustSpeed","HourlyWindSpeed","MonthlyAverageRH","MonthlyDaysWithGT001Precip","MonthlyDaysWithGT010Precip","MonthlyDaysWithGT32Temp","MonthlyDaysWithGT90Temp","MonthlyDaysWithLT0Temp","MonthlyDaysWithLT32Temp","MonthlyDepartureFromNormalAverageTemperature","MonthlyDepartureFromNormalCoolingDegreeDays","MonthlyDepartureFromNormalHeatingDegreeDays","MonthlyDepartureFromNormalMaximumTemperature","MonthlyDepartureFromNormalMinimumTemperature","MonthlyDepartureFromNormalPrecipitation","MonthlyDewpointTemperature","MonthlyGreatestPrecip","MonthlyGreatestPrecipDate","MonthlyGreatestSnowDepth","MonthlyGreatestSnowDepthDate","MonthlyGreatestSnowfall","MonthlyGreatestSnowfallDate","MonthlyMaxSeaLevelPressureValue","MonthlyMaxSeaLevelPressureValueDate","MonthlyMaxSeaLevelPressureValueTime","MonthlyMaximumTemperature","MonthlyMeanTemperature","MonthlyMinSeaLevelPressureValue","MonthlyMinSeaLevelPressureValueDate","MonthlyMinSeaLevelPressureValueTime","MonthlyMinimumTemperature","MonthlySeaLevelPressure","MonthlyStationPressure","MonthlyTotalLiquidPrecipitation","MonthlyTotalSnowfall","MonthlyWetBulb","NormalsCoolingDegreeDay","NormalsHeatingDegreeDay","REM","REPORT_TYPE","SOURCE","ShortDurationEndDate005","ShortDurationEndDate010","ShortDurationEndDate015","ShortDurationEndDate020","ShortDurationEndDate030","ShortDurationEndDate045","ShortDurationEndDate060","ShortDurationEndDate080","ShortDurationEndDate100","ShortDurationEndDate120","ShortDurationEndDate150","ShortDurationEndDate180","ShortDurationPrecipitationValue005","ShortDurationPrecipitationValue010","ShortDurationPrecipitationValue015","ShortDurationPrecipitationValue020","ShortDurationPrecipitationValue030","ShortDurationPrecipitationValue045","ShortDurationPrecipitationValue060","ShortDurationPrecipitationValue080","ShortDurationPrecipitationValue100","ShortDurationPrecipitationValue120","ShortDurationPrecipitationValue150","ShortDurationPrecipitationValue180","Sunrise","Sunset","TStorms","WindEquipmentChangeDate"
"72219013874","2020-05-10T00:52:00","FM-15","7",,,,,,,,,,,,,,,,,,,,,,,,,,,,,,,,,,,,,,"30.20","33","49","0.00",,"+0.02","5","55","30.20","SCT:04 250","29.10","10.00","42","000",,"0",,,,,,,,,,,,,,,,,,,,,,,,,,,,,,,,,,,,,"MET11605/10/20 00:52:02 METAR KATL 100552Z 00000KT 10SM SCT250 09/01 A3020 RMK AO2 SLP226 T00940006 10156 20094 55007 (DB)","FM-15","7",,,,,,,,,,,,,,,,,,,,,,,,,,,,"2007-03-27"
"72219013874","2020-05-10T01:00:00","FM-12","4",,,,,,,,,,,,,,,,,,,,,,,,,,,,,,,,,,,,,,,"33","49",,,"+0.02","5","55","30.20",,"29.09","9.94","42","000",,"0",,,,,,,,,,,,,,,,,,,,,,,,,,,,,,,,,,,,,"SYN08072219 32966 40000 10094 20006 39851 40226 55007 90552 333 10156 20067 555 91006=","FM-12","4",,,,,,,,,,,,,,,,,,,,,,,,,,,,"2007-03-27"
"72219013874","2020-05-10T01:52:00","FM-15","7",,,,,,,,,,,,,,,,,,,,,,,,,,,,,,,,,,,,,,"30.19","32","51","0.00",,,,"48","30.19","BKN:07 250","29.09","10.00","43","020",,"5",,,,,,,,,,,,,,,,,,,,,,,,,,,,,,,,,,,,,"MET09805/10/20 01:52:02 METAR KATL 100652Z 02004KT 10SM BKN250 11/00 A3019 RMK AO2 SLP223 T01060000 (DB)","FM-15","7",,,,,,,,,,,,,,,,,,,,,,,,,,,,"2007-03-27"
"72219013874","2020-05-10T02:52:00","FM-15","7",,,,,,,,,,,,,,,,,,,,,,,,,,,,,,,,,,,,,,"30.21","35","47","0.00",,,,"63","30.20","BKN:07 250","29.11","10.00","42","270",,"3",,,,,,,,,,,,,,,,,,,,,,,,,,,,,,,,,,,,,"MET09805/10/20 02:52:02 METAR KATL 100752Z 27003KT 10SM BKN250 08/02 A3021 RMK AO2 SLP228 T00830017 (DB)","FM-15","7",,,,,,,,,,,,,,,,,,,,,,,,,,,,"2007-03-27"
"72219013874","2020-05-10T03:52:00","FM-15","7",,,,,,,,,,,,,,,,,,,,,,,,,,,,,,,,,,,,,,"30.20","34","47","0.00",,"+0.01","8","61","30.19","BKN:07 250","29.10","10.00","41","000",,"0",,,,,,,,,,,,,,,,,,,,,,,,,,,,,,,,,,,,,"MET10405/10/20 03:52:02 METAR KATL 100852Z 00000KT 10SM BKN250 08/01 A3020 RMK AO2 SLP224 T00830011 58002 (DB)","FM-15","7",,,,,,,,,,,,,,,,,,,,,,,,,,,,"2007-03-27"
"72219013874","2020-05-10T04:52:00","FM-15","7",,,,,,,,,,,,,,,,,,,,,,,,,,,,,,,,,,,,,,"30.20","35","44","0.00",,,,"71","30.21","SCT:04 250","29.10","10.00","40","310",,"5",,,,,,,,,,,,,,,,,,,,,,,,,,,,,,,,,,,,,"MET09805/10/20 04:52:02 METAR KATL 100952Z 31004KT 10SM SCT250 07/02 A3020 RMK AO2 SLP229 T00670017 (DB)","FM-15","7",,,,,,,,,,,,,,,,,,,,,,,,,,,,"2007-03-27"
"72219013874","2020-05-10T05:52:00","FM-15","7",,,,,,,,,,,,,,,,,,,,,,,,,,,,,,,,,,,,,,"30.22","35","44","0.00",,,,"71","30.22","SCT:04 250","29.12","10.00","40","310",,"3",,,,,,,,,,,,,,,,,,,,,,,,,,,,,,,,,,,,,"MET09805/10/20 05:52:02 METAR KATL 101052Z 31003KT 10SM SCT250 07/02 A3022 RMK AO2 SLP234 T00670017 (DB)","FM-15","7",,,,,,,,,,,,,,,,,,,,,,,,,,,,"2007-03-27"
"72219013874","2020-05-10T06:52:00","FM-15","7",,,,,,,,,,,,,,,,,,,,,,,,,,,,,,,,,,,,,,"30.24","36","47","0.00",,"-0.05","3","66","30.24","FEW:02 200 SCT:04 250","29.14","10.00","42","320",,"5",,,,,,,,,,,,,,,,,,,,,,,,,,,,,,,,,,,,,"MET12305/10/20 06:52:02 METAR KATL 101152Z 32004KT 10SM FEW200 SCT250 08/02 A3024 RMK AO2 SLP242 T00830022 10106 20056 53016 (DB)","FM-15","7",,,,,,,,,,,,,,,,,,,,,,,,,,,,"2007-03-27"
"72219013874","2020-05-10T07:00:00","FM-12","4",,,,,,,,,,,,,,,,,,,,,,,,,,,,,,,,,,,,,,,"36","47",,,"-0.05","3","66","30.24",,"29.13","9.94","42","320",,"5",,,,,,,,,,,,,,,,,,,,,,,,,,,,,,,,,,,,,"SYN08072219 32966 43204 10083 20022 39864 40242 53016 91152 333 10189 20056 555 91012=","FM-12","4",,,,,,,,,,,,,,,,,,,,,,,,,,,,"2007-03-27"
"72219013874","2020-05-10T07:52:00","FM-15","7",,,,,,,,,,,,,,,,,,,,,,,,,,,,,,,,,,,,,,"30.25","35","54","0.00",,,,"49","30.25","FEW:02 250","29.15","10.00","45","070",,"6",,,,,,,,,,,,,,,,,,,,,,,,,,,,,,,,,,,,,"MET09805/10/20 07:52:02 METAR KATL 101252Z 07005KT 10SM FEW250 12/02 A3025 RMK AO2 SLP244 T01220017 (DB)","FM-15","7",,,,,,,,,,,,,,,,,,,,,,,,,,,,"2007-03-27"
"72219013874","2020-05-10T08:52:00","FM-15","7",,,,,,,,,,,,,,,,,,,,,,,,,,,,,,,,,,,,,,"30.26","35","57","0.00",,,,"44","30.26","SCT:04 250","29.15","10.00","47","040",,"3",,,,,,,,,,,,,,,,,,,,,,,,,,,,,,,,,,,,,"MET09805/10/20 08:52:02 METAR KATL 101352Z 04003KT 10SM SCT250 14/02 A3026 RMK AO2 SLP248 T01390017 (KM)","FM-15","7",,,,,,,,,,,,,,,,,,,,,,,,,,,,"2007-03-27"
"72219013874","2020-05-10T09:52:00","FM-15","7",,,,,,,,,,,,,,,,,,,,,,,,,,,,,,,,,,,,,,"30.26","36","61","0.00",,"-0.01","0","39","30.26","SCT:04 250","29.15","10.00","49","000",,"0",,,,,,,,,,,,,,,,,,,,,,,,,,,,,,,,,,,,,"MET10405/10/20 09:52:02 METAR KATL 101452Z 00000KT 10SM SCT250 16/02 A3026 RMK AO2 SLP246 T01610022 50005 (KM)","FM-15","7",,,,,,,,,,,,,,,,,,,,,,,,,,,,"2007-03-27"
"72219013874","2020-05-10T10:52:00","FM-15","7",,,,,,,,,,,,,,,,,,,,,,,,,,,,,,,,,,,,,,"30.24","37","65","0.00",,,,"36","30.24","FEW:02 250","29.14","10.00","51","VRB",,"3",,,,,,,,,,,,,,,,,,,,,,,,,,,,,,,,,,,,,"MET09805/10/20 10:52:02 METAR KATL 101552Z VRB03KT 10SM FEW250 18/03 A3024 RMK AO2 SLP240 T01830028 (KM)","FM-15","7",,,,,,,,,,,,,,,,,,,,,,,,,,,,"2007-03-27"
"72219013874","2020-05-10T11:52:00","FM-15","7",,,,,,,,,,,,,,,,,,,,,,,,,,,,,,,,,,,,,,"30.22","37","68","0.00",,,,"32","30.22","FEW:02 250","29.12","10.00","52","230",,"8",,,,,,,,,,,,,,,,,,,,,,,,,,,,,,,,,,,,,"MET09805/10/20 11:52:02 METAR KATL 101652Z 23007KT 10SM FEW250 20/03 A3022 RMK AO2 SLP232 T02000028 (KM)","FM-15","7",,,,,,,,,,,,,,,,,,,,,,,,,,,,"2007-03-27"
"72219013874","2020-05-10T12:52:00","FM-15","7",,,,,,,,,,,,,,,,,,,,,,,,,,,,,,,,,,,,,,"30.20","39","71","0.00",,"+0.06","8","31","30.19","CLR:00","29.10","10.00","54","280",,"8",,,,,,,,,,,,,,,,,,,,,,,,,,,,,,,,,,,,,"MET11305/10/20 12:52:02 METAR KATL 101752Z 28007KT 10SM CLR 22/04 A3020 RMK AO2 SLP223 T02170039 10217 20083 58020 (KM)","FM-15","7",,,,,,,,,,,,,,,,,,,,,,,,,,,,"2007-03-27"
"72219013874","2020-05-10T13:00:00","FM-12","4",,,,,,,,,,,,,,,,,,,,,,,,,,,,,,,,,,,,,,,"39","71",,,"+0.06","8","31","30.19",,"29.09","9.94","54","280",,"8",,,,,,,,,,,,,,,,,,,,,,,,,,,,,,,,,,,,,"SYN08072219 32966 02807 10217 20039 39851 40223 58020 91752 333 10217 20083 555 91018=","FM-12","4",,,,,,,,,,,,,,,,,,,,,,,,,,,,"2007-03-27"
"72219013874","2020-05-10T13:52:00","FM-15","7",,,,,,,,,,,,,,,,,,,,,,,,,,,,,,,,,,,,,,"30.17","39","73","0.00",,,,"29","30.16","CLR:00","29.07","10.00","55","280",,"9",,,,,,,,,,,,,,,,,,,,,,,,,,,,,,,,,,,,,"MET09505/10/20 13:52:02 METAR KATL 101852Z 28008KT 10SM CLR 23/04 A3017 RMK AO2 SLP214 T02280039 (KM)","FM-15","7",,,,,,,,,,,,,,,,,,,,,,,,,,,,"2007-03-27"
"72219013874","2020-05-10T14:52:00","FM-15","7",,,,,,,,,,,,,,,,,,,,,,,,,,,,,,,,,,,,,,"30.15","37","71","0.00",,,,"29","30.15","CLR:00","29.05","10.00","54","VRB",,"5",,,,,,,,,,,,,,,,,,,,,,,,,,,,,,,,,,,,,"MET09505/10/20 14:52:02 METAR KATL 101952Z VRB04KT 10SM CLR 22/03 A3015 RMK AO2 SLP209 T02170028 (KM)","FM-15","7",,,,,,,,,,,,,,,,,,,,,,,,,,,,"2007-03-27"
"72219013874","2020-05-10T15:52:00","FM-15","7",,,,,,,,,,,,,,,,,,,,,,,,,,,,,,,,,,,,,,"30.13","37","74","0.00",,"+0.06","6","26","30.12","CLR:00","29.03","10.00","55","300",,"9",,,,,,,,,,,,,,,,,,,,,,,,,,,,,,,,,,,,,"MET10105/10/20 15:52:02 METAR KATL 102052Z 30008KT 10SM CLR 23/03 A3013 RMK AO2 SLP201 T02330028 56021 (KM)","FM-15","7",,,,,,,,,,,,,,,,,,,,,,,,,,,,"2007-03-27"
"72219013874","2020-05-10T16:52:00","FM-15","7",,,,,,,,,,,,,,,,,,,,,,,,,,,,,,,,,,,,,,"30.12","36","73","0.00",,,,"26","30.11","CLR:00","29.02","10.00","54","250","18","7",,,,,,,,,,,,,,,,,,,,,,,,,,,,,,,,,,,,,"MET09905/10/20 16:52:02 METAR KATL 102152Z 25006G16KT 10SM CLR 23/02 A3012 RMK AO2 SLP198 T02280022 (CPS)","FM-15","7",,,,,,,,,,,,,,,,,,,,,,,,,,,,"2007-03-27"
"72219013874","2020-05-10T17:52:00","FM-15","7",,,,,,,,,,,,,,,,,,,,,,,,,,,,,,,,,,,,,,"30.11","33","72","0.00",,,,"24","30.10","CLR:00","29.01","10.00","53","280",,"9",,,,,,,,,,,,,,,,,,,,,,,,,,,,,,,,,,,,,"MET09605/10/20 17:52:02 METAR KATL 102252Z 28008KT 10SM CLR 22/01 A3011 RMK AO2 SLP194 T02220006 (CPS)","FM-15","7",,,,,,,,,,,,,,,,,,,,,,,,,,,,"2007-03-27"
"72219013874","2020-05-10T18:52:00","FM-15","7",,,,,,,,,,,,,,,,,,,,,,,,,,,,,,,,,,,,,,"30.10","36","69","0.00",,"+0.03","6","30","30.10","CLR:00","29.00","10.00","52","270",,"7",,,,,,,,,,,,,,,,,,,,,,,,,,,,,,,,,,,,,"MET11405/10/20 18:52:02 METAR KATL 102352Z 27006KT 10SM CLR 21/02 A3010 RMK AO2 SLP192 T02060022 10233 20206 56009 (CPS)","FM-15","7",,,,,,,,,,,,,,,,,,,,,,,,,,,,"2007-03-27"
"72219013874","2020-05-10T19:00:00","FM-12","4",,,,,,,,,,,,,,,,,,,,,,,,,,,,,,,,,,,,,,,"36","69",,,"+0.03","6","30","30.10",,"28.99","9.94","52","270",,"7",,,,,,,,,,,,,,,,,,,,,,,,,,,,,,,,,,,,,"SYN08072219 32966 02706 10206 20022 39818 40192 56009 92352 333 10233 20056 555 91100=","FM-12","4",,,,,,,,,,,,,,,,,,,,,,,,,,,,"2007-03-27"
"72219013874","2020-05-10T19:52:00","FM-15","7",,,,,,,,,,,,,,,,,,,,,,,,,,,,,,,,,,,,,,"30.12","35","66","0.00",,,,"32","30.11","CLR:00","29.02","10.00","51","310",,"9",,,,,,,,,,,,,,,,,,,,,,,,,,,,,,,,,,,,,"MET09005/10/20 19:52:01 METAR KATL 110052Z 31008KT 10SM CLR 19/02 A3012 RMK AO2 SLP197 T01890017","FM-15","7",,,,,,,,,,,,,,,,,,,,,,,,,,,,"2007-03-27"
"72219013874","2020-05-10T20:52:00","FM-15","7",,,,,,,,,,,,,,,,,,,,,,,,,,,,,,,,,,,,,,"30.12","37","63","0.00",,,,"38","30.11","CLR:00","29.02","10.00","50","310",,"6",,,,,,,,,,,,,,,,,,,,,,,,,,,,,,,,,,,,,"MET09005/10/20 20:52:01 METAR KATL 110152Z 31005KT 10SM CLR 17/03 A3012 RMK AO2 SLP198 T01720028","FM-15","7",,,,,,,,,,,,,,,,,,,,,,,,,,,,"2007-03-27"
"72219013874","2020-05-10T21:52:00","FM-15","7",,,,,,,,,,,,,,,,,,,,,,,,,,,,,,,,,,,,,,"30.14","39","60","0.00",,"-0.04","3","46","30.13","CLR:00","29.04","10.00","50","300",,"6",,,,,,,,,,,,,,,,,,,,,,,,,,,,,,,,,,,,,"MET09605/10/20 21:52:01 METAR KATL 110252Z 30005KT 10SM CLR 16/04 A3014 RMK AO2 SLP204 T01560039 53012","FM-15","7",,,,,,,,,,,,,,,,,,,,,,,,,,,,"2007-03-27"
"72219013874","2020-05-10T22:52:00","FM-15","7",,,,,,,,,,,,,,,,,,,,,,,,,,,,,,,,,,,,,,"30.15","37","60","0.00",,,,"42","30.13","CLR:00","29.05","10.00","49","290",,"7",,,,,,,,,,,,,,,,,,,,,,,,,,,,,,,,,,,,,"MET09005/10/20 22:52:02 METAR KATL 110352Z 29006KT 10SM CLR 16/03 A3015 RMK AO2 SLP204 T01560028","FM-15","7",,,,,,,,,,,,,,,,,,,,,,,,,,,,"2007-03-27"
"72219013874","2020-05-10T23:52:00","FM-15","7",,,,,,,,,,,,,,,,,,,,,,,,,,,,,,,,,,,,,,"30.13","38","57","0.00",,,,"49","30.12","CLR:00","29.03","10.00","48","290",,"7",,,,,,,,,,,,,,,,,,,,,,,,,,,,,,,,,,,,,"MET10005/10/20 23:52:02 METAR KATL 110452Z 29006KT 10SM CLR 14/03 A3013 RMK AO2 SLP199 T01390033 402330056","FM-15","7",,,,,,,,,,,,,,,,,,,,,,,,,,,,"2007-03-27"
"72219013874","2020-05-10T23:59:00","SOD  ","6",,,,,,,,,,,,,,,"36","58","43","30.18","29.08","48","5.3","0","-10.5","7","74","42","300","19","0.00","0","0.0","300","15",,,,,,,,,,,,,,,,,,,,,,,,,,,,,,,,,,,,,,,,,,,,,,,,,,,,,,,,,"SOD73924 HR PRECIPITATION (IN): 0.00 SNOW DEPTH (IN):0     24 HR SNOWFALL (IN):0.0  24 HR MAX TEMP (F): 7424 HR MIN TEMP (F): 42AVERAGE STATION PRESSURE:29.080 MINIMUM SEA LEVEL PRESSURE:30.10 TIME OF OCCURRENCE:1933 PEAK WIND SPEED (MPH): 19 PEAK WIND DIR (DEG):300 PEAK WIND TIME (LST):      FASTEST 2MIN SPEED (MPH): 15FASTEST 2MIN DIR (DEG):300 FASTEST 2MIN TIME (LST):     AVERAGE WIND SPEED (MPH): 5.3 24 HR AVG TEMP (F): 58DEPART FROM NORMAL:-10  HEATING DEGREE DAYS:  7 COOLING DEGREE DAYS:  0 LATEST DAY MAX TEMP (0700-1900 LST):74  LATEST NIGHT MIN TEMP(1900-0800 LST):42 HOURLY INCREMENTAL PRECIPITATION VALUES (IN):.00 0.00 0.00 0.00 0.00 0.00 0.00 0.00 0.00 0.00 0.00 0.00 0.00 0.00 0.00 0.00 0.00 0.00 0.00 0.00 0.00 0.00 0.00 0.00","SOD  ","6",,,,,,,,,,,,,,,,,,,,,,,,,"0540","1928",,"2007-03-27"
"72219013874","2020-05-11T00:52:00","FM-15","7",,,,,,,,,,,,,,,,,,,,,,,,,,,,,,,,,,,,,,"30.13","37","56","0.00",,"+0.01","8","49","30.12","CLR:00","29.03","10.00","47","280",,"6",,,,,,,,,,,,,,,,,,,,,,,,,,,,,,,,,,,,,"MET11305/11/20 00:52:02 METAR KATL 110552Z 28005KT 10SM CLR 13/03 A3013 RMK AO2 SLP199 T01330028 10206 20133 58004 (DB)","FM-15","7",,,,,,,,,,,,,,,,,,,,,,,,,,,,"2007-03-27"
"72219013874","2020-05-11T01:00:00","FM-12","4",,,,,,,,,,,,,,,,,,,,,,,,,,,,,,,,,,,,,,,"37","56",,,"+0.01","8","49","30.12",,"29.02","9.94","47","280",,"6",,,,,,,,,,,,,,,,,,,,,,,,,,,,,,,,,,,,,"SYN08072219 32966 02805 10133 20028 39828 40199 58004 90552 333 10206 20056 555 91106=","FM-12","4",,,,,,,,,,,,,,,,,,,,,,,,,,,,"2007-03-27"
"72219013874","2020-05-11T01:52:00","FM-15","7",,,,,,,,,,,,,,,,,,,,,,,,,,,,,,,,,,,,,,"30.12","37","56","0.00",,,,"49","30.10","CLR:00","29.02","10.00","47","280",,"9",,,,,,,,,,,,,,,,,,,,,,,,,,,,,,,,,,,,,"MET09505/11/20 01:52:02 METAR KATL 110652Z 28008KT 10SM CLR 13/03 A3012 RMK AO2 SLP193 T01330028 (DB)","FM-15","7",,,,,,,,,,,,,,,,,,,,,,,,,,,,"2007-03-27"
"72219013874","2020-05-11T02:52:00","FM-15","7",,,,,,,,,,,,,,,,,,,,,,,,,,,,,,,,,,,,,,"30.10","37","56","0.00",,,,"49","30.09","CLR:00","29.00","10.00","47","270",,"8",,,,,,,,,,,,,,,,,,,,,,,,,,,,,,,,,,,,,"MET09505/11/20 02:52:02 METAR KATL 110752Z 27007KT 10SM CLR 13/03 A3010 RMK AO2 SLP190 T01330028 (DB)","FM-15","7",,,,,,,,,,,,,,,,,,,,,,,,,,,,"2007-03-27"
"72219013874","2020-05-11T03:52:00","FM-15","7",,,,,,,,,,,,,,,,,,,,,,,,,,,,,,,,,,,,,,"30.13","38","55","0.00",,"+0.00","5","53","30.11","CLR:00","29.03","10.00","47","310",,"15",,,,,,,,,,,,,,,,,,,,,,,,,,,,,,,,,,,,,"MET10105/11/20 03:52:02 METAR KATL 110852Z 31013KT 10SM CLR 13/03 A3013 RMK AO2 SLP198 T01280033 55000 (DB)","FM-15","7",,,,,,,,,,,,,,,,,,,,,,,,,,,,"2007-03-27"
"72219013874","2020-05-11T04:52:00","FM-15","7",,,,,,,,,,,,,,,,,,,,,,,,,,,,,,,,,,,,,,"30.14","40","52","0.00",,,,"64","30.13","FEW:02 250","29.04","10.00","46","330",,"14",,,,,,,,,,,,,,,,,,,,,,,,,,,,,,,,,,,,,"MET09805/11/20 04:52:02 METAR KATL 110952Z 33012KT 10SM FEW250 11/04 A3014 RMK AO2 SLP202 T01110044 (DB)","FM-15","7",,,,,,,,,,,,,,,,,,,,,,,,,,,,"2007-03-27"
"72219013874","2020-05-11T05:52:00","FM-15","7",,,,,,,,,,,,,,,,,,,,,,,,,,,,,,,,,,,,,,"30.16","37","51","0.00",,,,"59","30.16","FEW:02 55","29.06","10.00","44","330",,"13",,,,,,,,,,,,,,,,,,,,,,,,,,,,,,,,,,,,,"MET09805/11/20 05:52:02 METAR KATL 111052Z 33011KT 10SM FEW055 11/03 A3016 RMK AO2 SLP212 T01060028 (DB)","FM-15","7",,,,,,,,,,,,,,,,,,,,,,,,,,,,"2007-03-27"
"72219013874","2020-05-11T06:52:00","FM-15","7",,,,,,,,,,,,,,,,,,,,,,,,,,,,,,,,,,,,,,"30.19","35","52","0.00",,"-0.06","3","53","30.18","CLR:00","29.09","10.00","44","330",,"14",,,,,,,,,,,,,,,,,,,,,,,,,,,,,,,,,,,,,"MET11305/11/20 06:52:02 METAR KATL 111152Z 33012KT 10SM CLR 11/02 A3019 RMK AO2 SLP221 T01110017 10139 20106 53020 (DB)","FM-15","7",,,,,,,,,,,,,,,,,,,,,,,,,,,,"2007-03-27"
"72219013874","2020-05-11T07:00:00","FM-12","4",,,,,,,,,,,,,,,,,,,,,,,,,,,,,,,,,,,,,,,"35","52",,,"-0.06","3","53","30.18",,"29.08","9.94","44","330",,"14",,,,,,,,,,,,,,,,,,,,,,,,,,,,,,,,,,,,,"SYN08072219 32966 03312 10111 20017 39848 40221 53020 91152 333 10233 20106 555 91112=","FM-12","4",,,,,,,,,,,,,,,,,,,,,,,,,,,,"2007-03-27"
"72219013874","2020-05-11T07:52:00","FM-15","7",,,,,,,,,,,,,,,,,,,,,,,,,,,,,,,,,,,,,,"30.21","33","55","0.00",,,,"44","30.20","CLR:00","29.11","10.00","45","330",,"14",,,,,,,,,,,,,,,,,,,,,,,,,,,,,,,,,,,,,"MET09505/11/20 07:52:02 METAR KATL 111252Z 33012KT 10SM CLR 13/01 A3021 RMK AO2 SLP227 T01280006 (DB)","FM-15","7",,,,,,,,,,,,,,,,,,,,,,,,,,,,"2007-03-27"
"72219013874","2020-05-11T08:52:00","FM-15","7",,,,,,,,,,,,,,,,,,,,,,,,,,,,,,,,,,,,,,"30.22","31","58","0.00",,,,"36","30.21","CLR:00","29.12","10.00","46","320",,"14",,,,,,,,,,,,,,,,,,,,,,,,,,,,,,,,,,,,,"MET09705/11/20 08:52:02 METAR KATL 111352Z 32012KT 10SM CLR 14/M01 A3022 RMK AO2 SLP231 T01441006 (KAF)","FM-15","7",,,,,,,,,,,,,,,,,,,,,,,,,,,,"2007-03-27"
"72219013874","2020-05-11T09:52:00","FM-15","7",,,,,,,,,,,,,,,,,,,,,,,,,,,,,,,,,,,,,,"30.23","29","60","0.00",,"-0.04","1","31","30.22","CLR:00","29.13","10.00","46","340","24","16",,,,,,,,,,,,,,,,,,,,,,,,,,,,,,,,,,,,,"MET10605/11/20 09:52:02 METAR KATL 111452Z 34014G21KT 10SM CLR 16/M02 A3023 RMK AO2 SLP234 T01561017 51012 (KAF)","FM-15","7",,,,,,,,,,,,,,,,,,,,,,,,,,,,"2007-03-27"
"72219013874","2020-05-11T10:52:00","FM-15","7",,,,,,,,,,,,,,,,,,,,,,,,,,,,,,,,,,,,,,"30.22","30","63","0.00",,,,"29","30.21","CLR:00","29.12","10.00","48","320","25","16",,,,,,,,,,,,,,,,,,,,,,,,,,,,,,,,,,,,,"MET10005/11/20 10:52:02 METAR KATL 111552Z 32014G22KT 10SM CLR 17/M01 A3022 RMK AO2 SLP231 T01721011 (KAF)","FM-15","7",,,,,,,,,,,,,,,,,,,,,,,,,,,,"2007-03-27"
"72219013874","2020-05-11T11:52:00","FM-15","7",,,,,,,,,,,,,,,,,,,,,,,,,,,,,,,,,,,,,,"30.21","33","63","0.00",,,,"33","30.20","FEW:02 65","29.11","10.00","49","330",,"17",,,,,,,,,,,,,,,,,,,,,,,,,,,,,,,,,,,,,"MET09905/11/20 11:52:02 METAR KATL 111652Z 33015KT 10SM FEW065 17/01 A3021 RMK AO2 SLP228 T01720006 (KAF)","FM-15","7",,,,,,,,,,,,,,,,,,,,,,,,,,,,"2007-03-27"
"72219013874","2020-05-11T12:44:00","FM-16","7",,,,,,,,,,,,,,,,,,,,,,,,,,,,,,,,,,,,,,"30.19","34","65",,,,,"32",,"FEW:02 70","29.09","10.00","50","280","23","16",,,,,,,,,,,,,,,,,,,,,,,,,,,,,,,,,,,,,"MET10605/11/20 12:44:02 SPECI KATL 111744Z 28014G20KT 10SM FEW070 18/01 A3019 RMK AO2 WSHFT 1729 T01830011 (KAF)","FM-16","7",,,,,,,,,,,,,,,,,,,,,,,,,,,,"2007-03-27"
"72219013874","2020-05-11T12:52:00","FM-15","7",,,,,,,,,,,,,,,,,,,,,,,,,,,,,,,,,,,,,,"30.18","33","66","0.00",,"+0.04","8","29","30.17","FEW:02 70","29.08","10.00","50","290","28","18",,,,,,,,,,,,,,,,,,,,,,,,,,,,,,,,,,,,,"MET13105/11/20 12:52:02 METAR KATL 111752Z 29016G24KT 10SM FEW070 19/01 A3018 RMK AO2 WSHFT 1729 SLP218 T01890006 10189 20111 58014 (KAF)","FM-15","7",,,,,,,,,,,,,,,,,,,,,,,,,,,,"2007-03-27"
"72219013874","2020-05-11T13:00:00","FM-12","4",,,,,,,,,,,,,,,,,,,,,,,,,,,,,,,,,,,,,,,"33","66",,,"+0.04","8","29","30.17","74","29.07","9.94","50","290",,"18",,,,,,,,,,,,,,,,,,,,,,,,,,,,,,,,,,,,,"SYN08672219 32866 22916 10189 20006 39844 40218 58014 91752 333 10189 20111 91024 555 91118=","FM-12","4",,,,,,,,,,,,,,,,,,,,,,,,,,,,"2007-03-27"
"72219013874","2020-05-11T13:52:00","FM-15","7",,,,,,,,,,,,,,,,,,,,,,,,,,,,,,,,,,,,,,"30.17","33","66","0.00",,,,"29","30.16","FEW:02 75","29.07","10.00","50","320","22","16",,,,,,,,,,,,,,,,,,,,,,,,,,,,,,,,,,,,,"MET10205/11/20 13:52:02 METAR KATL 111852Z 32014G19KT 10SM FEW075 19/01 A3017 RMK AO2 SLP213 T01890006 (KAF)","FM-15","7",,,,,,,,,,,,,,,,,,,,,,,,,,,,"2007-03-27"
"72219013874","2020-05-11T14:52:00","FM-15","7",,,,,,,,,,,,,,,,,,,,,,,,,,,,,,,,,,,,,,"30.16","34","68","0.00",,,,"28","30.15","FEW:02 200","29.06","10.00","51","320","23","15",,,,,,,,,,,,,,,,,,,,,,,,,,,,,,,,,,,,,"MET10205/11/20 14:52:02 METAR KATL 111952Z 32013G20KT 10SM FEW200 20/01 A3016 RMK AO2 SLP209 T02000011 (KAF)","FM-15","7",,,,,,,,,,,,,,,,,,,,,,,,,,,,"2007-03-27"
"72219013874","2020-05-11T15:52:00","FM-15","7",,,,,,,,,,,,,,,,,,,,,,,,,,,,,,,,,,,,,,"30.15","33","67","0.00",,"+0.04","6","28","30.14","FEW:02 200","29.05","10.00","51","310",,"10",,,,,,,,,,,,,,,,,,,,,,,,,,,,,,,,,,,,,"MET10505/11/20 15:52:02 METAR KATL 112052Z 31009KT 10SM FEW200 19/01 A3015 RMK AO2 SLP206 T01940006 56012 (KAF)","FM-15","7",,,,,,,,,,,,,,,,,,,,,,,,,,,,"2007-03-27"
"72219013874","2020-05-11T16:52:00","FM-15","7",,,,,,,,,,,,,,,,,,,,,,,,,,,,,,,,,,,,,,"30.15","33","67","0.00",,,,"28","30.14","FEW:02 200","29.05","10.00","51","300","24","16",,,,,,,,,,,,,,,,,,,,,,,,,,,,,,,,,,,,,"MET10105/11/20 16:52:02 METAR KATL 112152Z 30014G21KT 10SM FEW200 19/01 A3015 RMK AO2 SLP207 T01940006 (RF)","FM-15","7",,,,,,,,,,,,,,,,,,,,,,,,,,,,"2007-03-27"
"72219013874","2020-05-11T17:52:00","FM-15","7",,,,,,,,,,,,,,,,,,,,,,,,,,,,,,,,,,,,,,"30.15","32","66","0.00",,,,"28","30.14","CLR:00","29.05","10.00","50","300",,"14",,,,,,,,,,,,,,,,,,,,,,,,,,,,,,,,,,,,,"MET09505/11/20 17:52:02 METAR KATL 112252Z 30012KT 10SM CLR 19/00 A3015 RMK AO2 SLP207 T01890000 (RF)","FM-15","7",,,,,,,,,,,,,,,,,,,,,,,,,,,,"2007-03-27"
"72219013874","2020-05-11T18:52:00","FM-15","7",,,,,,,,,,,,,,,,,,,,,,,,,,,,,,,,,,,,,,"30.16","32","64","0.00",,"-0.01","3","30","30.15","CLR:00","29.06","10.00","49","300",,"13",,,,,,,,,,,,,,,,,,,,,,,,,,,,,,,,,,,,,"MET11305/11/20 18:52:02 METAR KATL 112352Z 30011KT 10SM CLR 18/00 A3016 RMK AO2 SLP210 T01780000 10206 20178 53002 (RF)","FM-15","7",,,,,,,,,,,,,,,,,,,,,,,,,,,,"2007-03-27"
"72219013874","2020-05-11T19:00:00","FM-12","4",,,,,,,,,,,,,,,,,,,,,,,,,,,,,,,,,,,,,,,"32","64",,,"-0.01","3","30","30.15",,"29.05","9.94","49","300",,"13",,,,,,,,,,,,,,,,,,,,,,,,,,,,,,,,,,,,,"SYN08072219 32966 03011 10178 20000 39838 40210 53002 92352 333 10206 20106 555 91200=","FM-12","4",,,,,,,,,,,,,,,,,,,,,,,,,,,,"2007-03-27"
"72219013874","2020-05-11T19:52:00","FM-15","7",,,,,,,,,,,,,,,,,,,,,,,,,,,,,,,,,,,,,,"30.16","31","61","0.00",,,,"32","30.16","CLR:00","29.06","10.00","47","300",,"9",,,,,,,,,,,,,,,,,,,,,,,,,,,,,,,,,,,,,"MET09105/11/20 19:52:01 METAR KATL 120052Z 30008KT 10SM CLR 16/M01 A3016 RMK AO2 SLP212 T01611006","FM-15","7",,,,,,,,,,,,,,,,,,,,,,,,,,,,"2007-03-27"
"72219013874","2020-05-11T20:52:00","FM-15","7",,,,,,,,,,,,,,,,,,,,,,,,,,,,,,,,,,,,,,"30.18","35","58","0.00",,,,"42","30.17","CLR:00","29.08","10.00","47","300",,"6",,,,,,,,,,,,,,,,,,,,,,,,,,,,,,,,,,,,,"MET09005/11/20 20:52:01 METAR KATL 120152Z 30005KT 10SM CLR 14/02 A3018 RMK AO2 SLP216 T01440017","FM-15","7",,,,,,,,,,,,,,,,,,,,,,,,,,,,"2007-03-27"
"72219013874","2020-05-11T21:52:00","FM-15","7",,,,,,,,,,,,,,,,,,,,,,,,,,,,,,,,,,,,,,"30.18","35","57","0.00",,"-0.03","2","44","30.18","CLR:00","29.08","10.00","47","310",,"6",,,,,,,,,,,,,,,,,,,,,,,,,,,,,,,,,,,,,"MET09605/11/20 21:52:01 METAR KATL 120252Z 31005KT 10SM CLR 14/02 A3018 RMK AO2 SLP219 T01390017 52009","FM-15","7",,,,,,,,,,,,,,,,,,,,,,,,,,,,"2007-03-27"
"72219013874","2020-05-11T22:52:00","FM-15","7",,,,,,,,,,,,,,,,,,,,,,,,,,,,,,,,,,,,,,"30.18","35","55","0.00",,,,"47","30.18","CLR:00","29.08","10.00","46","320",,"7",,,,,,,,,,,,,,,,,,,,,,,,,,,,,,,,,,,,,"MET09005/11/20 22:52:02 METAR KATL 120352Z 32006KT 10SM CLR 13/02 A3018 RMK AO2 SLP219 T01280017","FM-15","7",,,,,,,,,,,,,,,,,,,,,,,,,,,,"2007-03-27"
"72219013874","2020-05-11T23:52:00","FM-15","7",,,,,,,,,,,,,,,,,,,,,,,,,,,,,,,,,,,,,,"30.19","36","53","0.00",,,,"52","30.18","CLR:00","29.09","10.00","45","310",,"6",,,,,,,,,,,,,,,,,,,,,,,,,,,,,,,,,,,,,"MET10005/11/20 23:52:02 METAR KATL 120452Z 31005KT 10SM CLR 12/02 A3019 RMK AO2 SLP220 T01170022 402060106","FM-15","7",,,,,,,,,,,,,,,,,,,,,,,,,,,,"2007-03-27"
"72219013874","2020-05-11T23:59:00","SOD  ","6",,,,,,,,,,,,,,,"34","60","40","30.16","29.06","48","12.1","0","-8.8","5","69","51","290","28","0.00","0","0.0","330","22",,,,,,,,,,,,,,,,,,,,,,,,,,,,,,,,,,,,,,,,,,,,,,,,,,,,,,,,,"SOD73924 HR PRECIPITATION (IN): 0.00 SNOW DEPTH (IN):0     24 HR SNOWFALL (IN):0.0  24 HR MAX TEMP (F): 6924 HR MIN TEMP (F): 51AVERAGE STATION PRESSURE:29.060 MINIMUM SEA LEVEL PRESSURE:30.09 TIME OF OCCURRENCE:0341 PEAK WIND SPEED (MPH): 27 PEAK WIND DIR (DEG):290 PEAK WIND TIME (LST):      FASTEST 2MIN SPEED (MPH): 22FASTEST 2MIN DIR (DEG):330 FASTEST 2MIN TIME (LST):     AVERAGE WIND SPEED (MPH):12.1 24 HR AVG TEMP (F): 60DEPART FROM NORMAL: -9  HEATING DEGREE DAYS:  5 COOLING DEGREE DAYS:  0 LATEST DAY MAX TEMP (0700-1900 LST):69  LATEST NIGHT MIN TEMP(1900-0800 LST):51 HOURLY INCREMENTAL PRECIPITATION VALUES (IN):.00 0.00 0.00 0.00 0.00 0.00 0.00 0.00 0.00 0.00 0.00 0.00 0.00 0.00 0.00 0.00 0.00 0.00 0.00 0.00 0.00 0.00 0.00 0.00","SOD  ","6",,,,,,,,,,,,,,,,,,,,,,,,,"0540","1929",,"2007-03-27"
"72219013874","2020-05-12T00:52:00","FM-15","7",,,,,,,,,,,,,,,,,,,,,,,,,,,,,,,,,,,,,,"30.18","36","52","0.00",,"+0.00","8","55","30.18","CLR:00","29.08","10.00","45","320",,"6",,,,,,,,,,,,,,,,,,,,,,,,,,,,,,,,,,,,,"MET11305/12/20 00:52:02 METAR KATL 120552Z 32005KT 10SM CLR 11/02 A3018 RMK AO2 SLP219 T01110022 10178 20111 58000 (DB)","FM-15","7",,,,,,,,,,,,,,,,,,,,,,,,,,,,"2007-03-27"
"72219013874","2020-05-12T01:00:00","FM-12","4",,,,,,,,,,,,,,,,,,,,,,,,,,,,,,,,,,,,,,,"36","52",,,,,"55","30.18",,"29.07","9.94","45","320",,"6",,,,,,,,,,,,,,,,,,,,,,,,,,,,,,,,,,,,,"SYN08072219 32966 03205 10111 20022 39844 40219 58000 90552 333 10178 20106 555 91206=","FM-12","4",,,,,,,,,,,,,,,,,,,,,,,,,,,,"2007-03-27"
"72219013874","2020-05-12T01:52:00","FM-15","7",,,,,,,,,,,,,,,,,,,,,,,,,,,,,,,,,,,,,,"30.18","35","51","0.00",,,,"54","30.18","CLR:00","29.08","10.00","44","340",,"3",,,,,,,,,,,,,,,,,,,,,,,,,,,,,,,,,,,,,"MET09505/12/20 01:52:02 METAR KATL 120652Z 34003KT 10SM CLR 11/02 A3018 RMK AO2 SLP219 T01060017 (DB)","FM-15","7",,,,,,,,,,,,,,,,,,,,,,,,,,,,"2007-03-27"
"72219013874","2020-05-12T02:52:00","FM-15","7",,,,,,,,,,,,,,,,,,,,,,,,,,,,,,,,,,,,,,"30.20","37","49","0.00",,,,"64","30.20","FEW:02 250","29.10","10.00","43","250",,"3",,,,,,,,,,,,,,,,,,,,,,,,,,,,,,,,,,,,,"MET09805/12/20 02:52:02 METAR KATL 120752Z 25003KT 10SM FEW250 09/03 A3020 RMK AO2 SLP226 T00940028 (DB)","FM-15","7",,,,,,,,,,,,,,,,,,,,,,,,,,,,"2007-03-27"
"72219013874","2020-05-12T03:52:00","FM-15","7",,,,,,,,,,,,,,,,,,,,,,,,,,,,,,,,,,,,,,"30.23","36","49","0.00",,"-0.04","3","61","30.22","BKN:07 250","29.13","10.00","43","330",,"5",,,,,,,,,,,,,,,,,,,,,,,,,,,,,,,,,,,,,"MET10405/12/20 03:52:02 METAR KATL 120852Z 33004KT 10SM BKN250 09/02 A3023 RMK AO2 SLP234 T00940022 53015 (DB)","FM-15","7",,,,,,,,,,,,,,,,,,,,,,,,,,,,"2007-03-27"
"72219013874","2020-05-12T04:52:00","FM-15","7",,,,,,,,,,,,,,,,,,,,,,,,,,,,,,,,,,,,,,"30.24","37","50","0.00",,,,"61","30.23","SCT:04 90 SCT:04 200 BKN:07 250","29.14","10.00","44","320",,"6",,,,,,,,,,,,,,,,,,,,,,,,,,,,,,,,,,,,,"MET11205/12/20 04:52:02 METAR KATL 120952Z 32005KT 10SM SCT090 SCT200 BKN250 10/03 A3024 RMK AO2 SLP238 T01000028 (DB)","FM-15","7",,,,,,,,,,,,,,,,,,,,,,,,,,,,"2007-03-27"
"72219013874","2020-05-12T05:52:00","FM-15","7",,,,,,,,,,,,,,,,,,,,,,,,,,,,,,,,,,,,,,"30.24","36","50","0.00",,,,"59","30.24","SCT:04 100 BKN:07 150 BKN:07 200","29.14","10.00","44","000",,"0",,,,,,,,,,,,,,,,,,,,,,,,,,,,,,,,,,,,,"MET11205/12/20 05:52:02 METAR KATL 121052Z 00000KT 10SM SCT100 BKN150 BKN200 10/02 A3024 RMK AO2 SLP240 T01000022 (DB)","FM-15","7",,,,,,,,,,,,,,,,,,,,,,,,,,,,"2007-03-27"
"72219013874","2020-05-12T06:52:00","FM-15","7",,,,,,,,,,,,,,,,,,,,,,,,,,,,,,,,,,,,,,"30.28","35","54","0.00",,"-0.05","3","49","30.27","BKN:07 130 BKN:07 180 BKN:07 220","29.18","10.00","45","010",,"5",,,,,,,,,,,,,,,,,,,,,,,,,,,,,,,,,,,,,"MET14805/12/20 06:52:02 METAR KATL 121152Z 01004KT 10SM BKN130 BKN180 BKN220 12/02 A3028 RMK AO2 PRESRR SLP252 VIRGA NE-E T01220017 10122 20094 53017 (DB)","FM-15","7",,,,,,,,,,,,,,,,,,,,,,,,,,,,"2007-03-27"
"72219013874","2020-05-12T07:00:00","FM-12","4",,,,,,,,,,,,,,,,,,,,,,,,,,,,,,,,,,,,,,,"35","54",,,"-0.05","3","49","30.27",,"29.17","9.94","45","010",,"5",,,,,,,,,,,,,,,,,,,,,,,,,,,,,,,,,,,,,"SYN08072219 32966 60104 10122 20017 39877 40252 53017 91152 333 10206 20094 555 91212=","FM-12","4",,,,,,,,,,,,,,,,,,,,,,,,,,,,"2007-03-27"
"72219013874","2020-05-12T07:52:00","FM-15","7",,,,,,,,,,,,,,,,,,,,,,,,,,,,,,,,,,,,,,"30.30","36","56","0.00",,,,"47","30.29","FEW:02 90 BKN:07 150 BKN:07 200","29.19","10.00","47","050",,"9",,,,,,,,,,,,,,,,,,,,,,,,,,,,,,,,,,,,,"MET12205/12/20 07:52:02 METAR KATL 121252Z 05008KT 10SM FEW090 BKN150 BKN200 13/02 A3030 RMK AO2 SLP259 ACC ALQDS T01330022 (DB)","FM-15","7",,,,,,,,,,,,,,,,,,,,,,,,,,,,"2007-03-27"
"72219013874","2020-05-12T08:52:00","FM-15","7",,,,,,,,,,,,,,,,,,,,,,,,,,,,,,,,,,,,,,"30.31","37","58","0.00",,,,"46","30.30","FEW:02 95 SCT:04 150 SCT:04 200","29.21","10.00","48","080",,"9",,,,,,,,,,,,,,,,,,,,,,,,,,,,,,,,,,,,,"MET12705/12/20 08:52:02 METAR KATL 121352Z 08008KT 10SM FEW095 SCT150 SCT200 14/03 A3031 RMK AO2 SLP262 ACC DSNT NW-N T01440028 (KAF)","FM-15","7",,,,,,,,,,,,,,,,,,,,,,,,,,,,"2007-03-27"
"72219013874","2020-05-12T09:50:00","FM-16","6",,,,,,,,,,,,,,,,,,,,,,,,,,,,,,,,,,,,,,"30.29","36","63",,,,,"37",,"FEW:02 1 FEW:02 140 SCT:04 200","29.18","10.00","50","070",,"10",,,,,,,,,,,,,,,,,,,,,,,,,,,,,,,,,,,,,"MET11105/12/20 09:50:02 SPECI KATL 121450Z 07009KT 10SM FEW001 FEW140 SCT200 17/02 A3029 RMK AO2 FU FEW001 FIBI (KAF)","FM-16","6",,,,,,,,,,,,,,,,,,,,,,,,,,,,"2007-03-27"
"72219013874","2020-05-12T09:52:00","FM-15","7",,,,,,,,,,,,,,,,,,,,,,,,,,,,,,,,,,,,,,"30.29","36","62","0.00",,"-0.01","0","38","30.28","FEW:02 1 FEW:02 140 SCT:04 200","29.18","10.00","49","100",,"8",,,,,,,,,,,,,,,,,,,,,,,,,,,,,,,,,,,,,"MET12905/12/20 09:52:02 METAR KATL 121452Z 10007KT 10SM FEW001 FEW140 SCT200 17/02 A3029 RMK AO2 SLP255 FU FEW001 T01670022 50003 (KAF)","FM-15","7",,,,,,,,,,,,,,,,,,,,,,,,,,,,"2007-03-27"
"72219013874","2020-05-12T10:52:00","FM-15","7",,,,,,,,,,,,,,,,,,,,,,,,,,,,,,,,,,,,,,"30.29","36","64","0.00",,,,"35","30.29","FEW:02 140 SCT:04 200 BKN:07 250","29.18","10.00","50","030",,"6",,,,,,,,,,,,,,,,,,,,,,,,,,,,,,,,,,,,,"MET11305/12/20 10:52:02 METAR KATL 121552Z 03005KT 10SM FEW140 SCT200 BKN250 18/02 A3029 RMK AO2 SLP256 T01780022 (KAF)","FM-15","7",,,,,,,,,,,,,,,,,,,,,,,,,,,,"2007-03-27"
"72219013874","2020-05-12T11:52:00","FM-15","7",,,,,,,,,,,,,,,,,,,,,,,,,,,,,,,,,,,,,,"30.28","38","65","0.00",,,,"37","30.27","FEW:02 140 SCT:04 200 BKN:07 250","29.18","10.00","51","100",,"7",,,,,,,,,,,,,,,,,,,,,,,,,,,,,,,,,,,,,"MET11305/12/20 11:52:02 METAR KATL 121652Z 10006KT 10SM FEW140 SCT200 BKN250 18/03 A3028 RMK AO2 SLP250 T01830033 (KAF)","FM-15","7",,,,,,,,,,,,,,,,,,,,,,,,,,,,"2007-03-27"
"72219013874","2020-05-12T12:52:00","FM-15","7",,,,,,,,,,,,,,,,,,,,,,,,,,,,,,,,,,,,,,"30.26","39","67","0.00",,"+0.03","8","36","30.25","FEW:02 140 SCT:04 200 SCT:04 250","29.15","10.00","53","120",,"5",,,,,,,,,,,,,,,,,,,,,,,,,,,,,,,,,,,,,"MET13105/12/20 12:52:02 METAR KATL 121752Z 12004KT 10SM FEW140 SCT200 SCT250 19/04 A3026 RMK AO2 SLP244 T01940039 10194 20122 58010 (KAF)","FM-15","7",,,,,,,,,,,,,,,,,,,,,,,,,,,,"2007-03-27"
"72219013874","2020-05-12T13:00:00","FM-12","4",,,,,,,,,,,,,,,,,,,,,,,,,,,,,,,,,,,,,,,"39","67",,,"+0.03","8","36","30.25",,"29.15","9.94","53","120",,"5",,,,,,,,,,,,,,,,,,,,,,,,,,,,,,,,,,,,,"SYN08072219 32966 41204 10194 20039 39871 40244 58010 91752 333 10194 20122 555 91218=","FM-12","4",,,,,,,,,,,,,,,,,,,,,,,,,,,,"2007-03-27"
"72219013874","2020-05-12T13:52:00","FM-15","7",,,,,,,,,,,,,,,,,,,,,,,,,,,,,,,,,,,,,,"30.24","40","69","0.00",,,,"35","30.24","FEW:02 130 SCT:04 200 SCT:04 250","29.14","10.00","54","220",,"5",,,,,,,,,,,,,,,,,,,,,,,,,,,,,,,,,,,,,"MET12805/12/20 13:52:02 METAR KATL 121852Z 22004KT 10SM FEW130 SCT200 SCT250 21/04 A3024 RMK AO2 SLP239 ACC DSNT NW-NE T02060044 (KAF)","FM-15","7",,,,,,,,,,,,,,,,,,,,,,,,,,,,"2007-03-27"
"72219013874","2020-05-12T14:52:00","FM-15","7",,,,,,,,,,,,,,,,,,,,,,,,,,,,,,,,,,,,,,"30.22","42","71","0.00",,,,"35","30.21","FEW:02 130 SCT:04 200 SCT:04 250","29.12","10.00","56","200",,"6",,,,,,,,,,,,,,,,,,,,,,,,,,,,,,,,,,,,,"MET11305/12/20 14:52:02 METAR KATL 121952Z 20005KT 10SM FEW130 SCT200 SCT250 22/06 A3022 RMK AO2 SLP230 T02170056 (KAF)","FM-15","7",,,,,,,,,,,,,,,,,,,,,,,,,,,,"2007-03-27"
"72219013874","2020-05-12T15:52:00","FM-15","7",,,,,,,,,,,,,,,,,,,,,,,,,,,,,,,,,,,,,,"30.20","42","71","0.00",,"+0.05","6","35","30.20","FEW:02 140 SCT:04 200 SCT:04 250","29.10","10.00","56","VRB",,"3",,,,,,,,,,,,,,,,,,,,,,,,,,,,,,,,,,,,,"MET11905/12/20 15:52:02 METAR KATL 122052Z VRB03KT 10SM FEW140 SCT200 SCT250 22/06 A3020 RMK AO2 SLP226 T02170056 56018 (KAF)","FM-15","7",,,,,,,,,,,,,,,,,,,,,,,,,,,,"2007-03-27"
"72219013874","2020-05-12T16:52:00","FM-15","7",,,,,,,,,,,,,,,,,,,,,,,,,,,,,,,,,,,,,,"30.20","42","73","0.00",,,,"33","30.19","FEW:02 150 FEW:02 250","29.10","10.00","56","290",,"8",,,,,,,,,,,,,,,,,,,,,,,,,,,,,,,,,,,,,"MET10505/12/20 16:52:02 METAR KATL 122152Z 29007KT 10SM FEW150 FEW250 23/06 A3020 RMK AO2 SLP222 T02280056 (RF)","FM-15","7",,,,,,,,,,,,,,,,,,,,,,,,,,,,"2007-03-27"
"72219013874","2020-05-12T17:52:00","FM-15","7",,,,,,,,,,,,,,,,,,,,,,,,,,,,,,,,,,,,,,"30.19","42","73","0.00",,,,"33","30.18","FEW:02 150 SCT:04 250","29.09","10.00","56","310",,"8",,,,,,,,,,,,,,,,,,,,,,,,,,,,,,,,,,,,,"MET10505/12/20 17:52:02 METAR KATL 122252Z 31007KT 10SM FEW150 SCT250 23/06 A3019 RMK AO2 SLP220 T02280056 (RF)","FM-15","7",,,,,,,,,,,,,,,,,,,,,,,,,,,,"2007-03-27"
"72219013874","2020-05-12T18:52:00","FM-15","7",,,,,,,,,,,,,,,,,,,,,,,,,,,,,,,,,,,,,,"30.19","43","70","0.00",,"+0.01","6","38","30.18","FEW:02 180 SCT:04 250","29.09","10.00","56","280",,"5",,,,,,,,,,,,,,,,,,,,,,,,,,,,,,,,,,,,,"MET12305/12/20 18:52:02 METAR KATL 122352Z 28004KT 10SM FEW180 SCT250 21/06 A3019 RMK AO2 SLP220 T02110061 10233 20194 56004 (RF)","FM-15","7",,,,,,,,,,,,,,,,,,,,,,,,,,,,"2007-03-27"
"72219013874","2020-05-12T19:00:00","FM-12","4",,,,,,,,,,,,,,,,,,,,,,,,,,,,,,,,,,,,,,,"43","70",,,"+0.01","6","38","30.18",,"29.08","9.94","56","280",,"5",,,,,,,,,,,,,,,,,,,,,,,,,,,,,,,,,,,,,"SYN08072219 32966 42804 10211 20061 39848 40220 56004 92352 333 10233 20094 555 91300=","FM-12","4",,,,,,,,,,,,,,,,,,,,,,,,,,,,"2007-03-27"
"72219013874","2020-05-12T19:52:00","FM-15","7",,,,,,,,,,,,,,,,,,,,,,,,,,,,,,,,,,,,,,"30.20","43","69","0.00",,,,"39","30.19","FEW:02 180 SCT:04 250","29.10","10.00","55","320",,"3",,,,,,,,,,,,,,,,,,,,,,,,,,,,,,,,,,,,,"MET10005/12/20 19:52:01 METAR KATL 130052Z 32003KT 10SM FEW180 SCT250 21/06 A3020 RMK AO2 SLP222 T02060061","FM-15","7",,,,,,,,,,,,,,,,,,,,,,,,,,,,"2007-03-27"
"72219013874","2020-05-12T20:52:00","FM-15","7",,,,,,,,,,,,,,,,,,,,,,,,,,,,,,,,,,,,,,"30.21","43","67","0.00",,,,"42","30.19","FEW:02 200 BKN:07 250","29.11","10.00","54","050",,"11",,,,,,,,,,,,,,,,,,,,,,,,,,,,,,,,,,,,,"MET10005/12/20 20:52:01 METAR KATL 130152Z 05010KT 10SM FEW200 BKN250 19/06 A3021 RMK AO2 SLP225 T01940061","FM-15","7",,,,,,,,,,,,,,,,,,,,,,,,,,,,"2007-03-27"
"72219013874","2020-05-12T21:52:00","FM-15","7",,,,,,,,,,,,,,,,,,,,,,,,,,,,,,,,,,,,,,"30.21","44","64","0.00",,"-0.02","1","48","30.20","FEW:02 200 BKN:07 250","29.11","10.00","53","070",,"9",,,,,,,,,,,,,,,,,,,,,,,,,,,,,,,,,,,,,"MET10605/12/20 21:52:01 METAR KATL 130252Z 07008KT 10SM FEW200 BKN250 18/07 A3021 RMK AO2 SLP227 T01780067 51007","FM-15","7",,,,,,,,,,,,,,,,,,,,,,,,,,,,"2007-03-27"
"72219013874","2020-05-12T22:52:00","FM-15","7",,,,,,,,,,,,,,,,,,,,,,,,,,,,,,,,,,,,,,"30.22","44","61","0.00",,,,"54","30.21","SCT:04 200 BKN:07 250","29.12","10.00","52","080",,"7",,,,,,,,,,,,,,,,,,,,,,,,,,,,,,,,,,,,,"MET10005/12/20 22:52:02 METAR KATL 130352Z 08006KT 10SM SCT200 BKN250 16/07 A3022 RMK AO2 SLP230 T01610067","FM-15","7",,,,,,,,,,,,,,,,,,,,,,,,,,,,"2007-03-27"
"72219013874","2020-05-12T23:52:00","FM-15","7",,,,,,,,,,,,,,,,,,,,,,,,,,,,,,,,,,,,,,"30.22","44","60","0.00",,,,"56","30.21","FEW:02 150 SCT:04 200 BKN:07 250","29.12","10.00","52","090",,"6",,,,,,,,,,,,,,,,,,,,,,,,,,,,,,,,,,,,,"MET11705/12/20 23:52:02 METAR KATL 130452Z 09005KT 10SM FEW150 SCT200 BKN250 16/07 A3022 RMK AO2 SLP230 T01560067 402330094","FM-15","7",,,,,,,,,,,,,,,,,,,,,,,,,,,,"2007-03-27"
"72219013874","2020-05-12T23:59:00","SOD  ","6",,,,,,,,,,,,,,,"39","62","45","30.23","29.12","50","5.9","0","-7.1","3","74","49","290","17","0.00","0","0.0","040","13",,,,,,,,,,,,,,,,,,,,,,,,,,,,,,,,,,,,,,,,,,,,,,,,,,,,,,,,,"SOD73924 HR PRECIPITATION (IN): 0.00 SNOW DEPTH (IN):0     24 HR SNOWFALL (IN):0.0  24 HR MAX TEMP (F): 7424 HR MIN TEMP (F): 49AVERAGE STATION PRESSURE:29.120 MINIMUM SEA LEVEL PRESSURE:30.17 TIME OF OCCURRENCE:0231 PEAK WIND SPEED (MPH): 17 PEAK WIND DIR (DEG):290 PEAK WIND TIME (LST):      FASTEST 2MIN SPEED (MPH): 13FASTEST 2MIN DIR (DEG): 40 FASTEST 2MIN TIME (LST):     AVERAGE WIND SPEED (MPH): 5.9 24 HR AVG TEMP (F): 62DEPART FROM NORMAL: -7  HEATING DEGREE DAYS:  3 COOLING DEGREE DAYS:  0 LATEST DAY MAX TEMP (0700-1900 LST):74  LATEST NIGHT MIN TEMP(1900-0800 LST):49 HOURLY INCREMENTAL PRECIPITATION VALUES (IN):.00 0.00 0.00 0.00 0.00 0.00 0.00 0.00 0.00 0.00 0.00 0.00 0.00 0.00 0.00 0.00 0.00 0.00 0.00 0.00 0.00 0.00 0.00 0.00","SOD  ","6",,,,,,,,,,,,,,,,,,,,,,,,,"0539","1930",,"2007-03-27"
"72219013874","2020-05-13T00:52:00","FM-15","7",,,,,,,,,,,,,,,,,,,,,,,,,,,,,,,,,,,,,,"30.22","45","59","0.00",,"-0.01","1","60","30.21","FEW:02 150 BKN:07 200 BKN:07 250","29.12","10.00","52","080",,"6",,,,,,,,,,,,,,,,,,,,,,,,,,,,,,,,,,,,,"MET13005/13/20 00:52:02 METAR KATL 130552Z 08005KT 10SM FEW150 BKN200 BKN250 15/07 A3022 RMK AO2 SLP230 T01500072 10211 20144 51003 (DB)","FM-15","7",,,,,,,,,,,,,,,,,,,,,,,,,,,,"2007-03-27"
"72219013874","2020-05-13T01:00:00","FM-12","4",,,,,,,,,,,,,,,,,,,,,,,,,,,,,,,,,,,,,,,"45","59",,,"-0.01","1","60","30.21",,"29.11","9.94","52","080",,"6",,,,,,,,,,,,,,,,,,,,,,,,,,,,,,,,,,,,,"SYN08072219 32966 60805 10150 20072 39857 40230 51003 90552 333 10211 20094 555 91306=","FM-12","4",,,,,,,,,,,,,,,,,,,,,,,,,,,,"2007-03-27"
"72219013874","2020-05-13T01:52:00","FM-15","7",,,,,,,,,,,,,,,,,,,,,,,,,,,,,,,,,,,,,,"30.22","44","59","0.00",,,,"58","30.21","FEW:02 150 SCT:04 200 SCT:04 250","29.12","10.00","51","090",,"6",,,,,,,,,,,,,,,,,,,,,,,,,,,,,,,,,,,,,"MET11205/13/20 01:52:02 METAR KATL 130652Z 09005KT 10SM FEW150 SCT200 SCT250 15/07 A3022 RMK AO2 SLP229 T01500067 (DB)","FM-15","7",,,,,,,,,,,,,,,,,,,,,,,,,,,,"2007-03-27"
"72219013874","2020-05-13T02:52:00","FM-15","7",,,,,,,,,,,,,,,,,,,,,,,,,,,,,,,,,,,,,,"30.22","45","57","0.00",,,,"64","30.21","FEW:02 150 BKN:07 200","29.12","10.00","51","080",,"6",,,,,,,,,,,,,,,,,,,,,,,,,,,,,,,,,,,,,"MET10505/13/20 02:52:02 METAR KATL 130752Z 08005KT 10SM FEW150 BKN200 14/07 A3022 RMK AO2 SLP229 T01390072 (DB)","FM-15","7",,,,,,,,,,,,,,,,,,,,,,,,,,,,"2007-03-27"
"72219013874","2020-05-13T03:52:00","FM-15","7",,,,,,,,,,,,,,,,,,,,,,,,,,,,,,,,,,,,,,"30.23","45","56","0.00",,"-0.01","3","67","30.21","SCT:04 180","29.13","10.00","50","080",,"6",,,,,,,,,,,,,,,,,,,,,,,,,,,,,,,,,,,,,"MET10405/13/20 03:52:02 METAR KATL 130852Z 08005KT 10SM SCT180 13/07 A3023 RMK AO2 SLP231 T01330072 53002 (DB)","FM-15","7",,,,,,,,,,,,,,,,,,,,,,,,,,,,"2007-03-27"
"72219013874","2020-05-13T04:52:00","FM-15","7",,,,,,,,,,,,,,,,,,,,,,,,,,,,,,,,,,,,,,"30.23","44","58","0.00",,,,"60","30.21","BKN:07 150","29.13","10.00","51","120",,"3",,,,,,,,,,,,,,,,,,,,,,,,,,,,,,,,,,,,,"MET09805/13/20 04:52:02 METAR KATL 130952Z 12003KT 10SM BKN150 14/07 A3023 RMK AO2 SLP231 T01440067 (DB)","FM-15","7",,,,,,,,,,,,,,,,,,,,,,,,,,,,"2007-03-27"
"72219013874","2020-05-13T05:52:00","FM-15","7",,,,,,,,,,,,,,,,,,,,,,,,,,,,,,,,,,,,,,"30.24","46","58","0.00",,,,"65","30.23","BKN:07 150 BKN:07 200","29.14","10.00","52","130",,"3",,,,,,,,,,,,,,,,,,,,,,,,,,,,,,,,,,,,,"MET11705/13/20 05:52:02 METAR KATL 131052Z 13003KT 10SM BKN150 BKN200 14/08 A3024 RMK AO2 SLP237 VIRGA ALQDS T01440078 (DB)","FM-15","7",,,,,,,,,,,,,,,,,,,,,,,,,,,,"2007-03-27"
"72219013874","2020-05-13T06:52:00","FM-15","7",,,,,,,,,,,,,,,,,,,,,,,,,,,,,,,,,,,,,,"30.27","48","58","0.00",,"-0.04","3","70","30.25","BKN:07 150 BKN:07 200","29.16","10.00","53","000",,"0",,,,,,,,,,,,,,,,,,,,,,,,,,,,,,,,,,,,,"MET13505/13/20 06:52:02 METAR KATL 131152Z 00000KT 10SM BKN150 BKN200 14/09 A3027 RMK AO2 SLP245 VIRGA ALQDS T01440089 10156 20133 53013 (DB)","FM-15","7",,,,,,,,,,,,,,,,,,,,,,,,,,,,"2007-03-27"
"72219013874","2020-05-13T07:00:00","FM-12","4",,,,,,,,,,,,,,,,,,,,,,,,,,,,,,,,,,,,,,,"48","58",,,"-0.04","3","70","30.25",,"29.16","9.94","53","000",,"0",,,,,,,,,,,,,,,,,,,,,,,,,,,,,,,,,,,,,"SYN08072219 32966 60000 10144 20089 39874 40245 53013 91152 333 10233 20133 555 91312=","FM-12","4",,,,,,,,,,,,,,,,,,,,,,,,,,,,"2007-03-27"
"72219013874","2020-05-13T07:52:00","FM-15","7",,,,,,,,,,,,,,,,,,,,,,,,,,,,,,,,,,,,,,"30.28","50","60","0.00",,,,"70","30.26","BKN:07 150 BKN:07 200","29.18","10.00","55","140",,"5",,,,,,,,,,,,,,,,,,,,,,,,,,,,,,,,,,,,,"MET11705/13/20 07:52:02 METAR KATL 131252Z 14004KT 10SM BKN150 BKN200 16/10 A3028 RMK AO2 SLP248 VIRGA ALQDS T01560100 (DB)","FM-15","7",,,,,,,,,,,,,,,,,,,,,,,,,,,,"2007-03-27"
"72219013874","2020-05-13T08:52:00","FM-15","7",,,,,,,,,,,,,,,,,,,,,,,,,,,,,,,,,,,,,,"30.29","52","63","0.00",,,,"68","30.27","FEW:02 110 BKN:07 140 BKN:07 200","29.18","10.00","57","130",,"6",,,,,,,,,,,,,,,,,,,,,,,,,,,,,,,,,,,,,"MET12605/13/20 08:52:02 METAR KATL 131352Z 13005KT 10SM FEW110 BKN140 BKN200 17/11 A3029 RMK AO2 SLP252 VIRGA W-N-NE T01720111 (KAF)","FM-15","7",,,,,,,,,,,,,,,,,,,,,,,,,,,,"2007-03-27"
"72219013874","2020-05-13T09:52:00","FM-15","7",,,,,,,,,,,,,,,,,,,,,,,,,,,,,,,,,,,,,,"30.29","53","66","0.00",,"-0.02","1","63","30.27","SCT:04 150 BKN:07 200 BKN:07 250","29.18","10.00","59","120",,"5",,,,,,,,,,,,,,,,,,,,,,,,,,,,,,,,,,,,,"MET13305/13/20 09:52:02 METAR KATL 131452Z 12004KT 10SM SCT150 BKN200 BKN250 19/12 A3029 RMK AO2 SLP252 VIRGA NW-NE-E T01890117 51007 (KAF)","FM-15","7",,,,,,,,,,,,,,,,,,,,,,,,,,,,"2007-03-27"
"72219013874","2020-05-13T10:52:00","FM-15","7",,,,,,,,,,,,,,,,,,,,,,,,,,,,,,,,,,,,,,"30.27","55","70","0.00",,,,"59","30.26","FEW:02 150 BKN:07 180 BKN:07 250","29.16","10.00","61","150",,"5",,,,,,,,,,,,,,,,,,,,,,,,,,,,,,,,,,,,,"MET12305/13/20 10:52:02 METAR KATL 131552Z 15004KT 10SM FEW150 BKN180 BKN250 21/13 A3027 RMK AO2 SLP247 VIRGA N-E T02110128 (KAF)","FM-15","7",,,,,,,,,,,,,,,,,,,,,,,,,,,,"2007-03-27"
"72219013874","2020-05-13T11:52:00","FM-15","7",,,,,,,,,,,,,,,,,,,,,,,,,,,,,,,,,,,,,,"30.26","52","73","0.00",,,,"48","30.24","FEW:02 150 BKN:07 180 BKN:07 250","29.15","10.00","61","190",,"11",,,,,,,,,,,,,,,,,,,,,,,,,,,,,,,,,,,,,"MET12705/13/20 11:52:02 METAR KATL 131652Z 19010KT 10SM FEW150 BKN180 BKN250 23/11 A3026 RMK AO2 SLP242 VIRGA NW-NE-E T02280111 (KAF)","FM-15","7",,,,,,,,,,,,,,,,,,,,,,,,,,,,"2007-03-27"
"72219013874","2020-05-13T12:52:00","FM-15","7",,,,,,,,,,,,,,,,,,,,,,,,,,,,,,,,,,,,,,"30.25","52","75","0.00",,"+0.04","7","45","30.23","FEW:02 150 BKN:07 180 BKN:07 250","29.15","10.00","62","200",,"13",,,,,,,,,,,,,,,,,,,,,,,,,,,,,,,,,,,,,"MET15105/13/20 12:52:02 METAR KATL 131752Z 20011KT 10SM FEW150 BKN180 BKN250 24/11 A3025 RMK AO2 SLP237 VIRGA NW-NE-E ACC E T02390111 10239 20144 57013 (KAF)","FM-15","7",,,,,,,,,,,,,,,,,,,,,,,,,,,,"2007-03-27"
"72219013874","2020-05-13T13:00:00","FM-12","4",,,,,,,,,,,,,,,,,,,,,,,,,,,,,,,,,,,,,,,"52","75",,,"+0.04","7","45","30.23",,"29.14","9.94","62","200",,"13",,,,,,,,,,,,,,,,,,,,,,,,,,,,,,,,,,,,,"SYN08072219 32966 62011 10239 20111 39867 40237 57013 91752 333 10239 20144 555 91318=","FM-12","4",,,,,,,,,,,,,,,,,,,,,,,,,,,,"2007-03-27"
"72219013874","2020-05-13T13:52:00","FM-15","7",,,,,,,,,,,,,,,,,,,,,,,,,,,,,,,,,,,,,,"30.24","54","77","0.00",,,,"45","30.22","FEW:02 50 FEW:02 150 BKN:07 180","29.14","10.00","63","140",,"6",,,,,,,,,,,,,,,,,,,,,,,,,,,,,,,,,,,,,"MET13005/13/20 13:52:02 METAR KATL 131852Z 14005KT 10SM FEW050 FEW150 BKN180 25/12 A3024 RMK AO2 SLP233 VIRGA DSNT NW-NE T02500122 (KAF)","FM-15","7",,,,,,,,,,,,,,,,,,,,,,,,,,,,"2007-03-27"
"72219013874","2020-05-13T14:52:00","FM-15","7",,,,,,,,,,,,,,,,,,,,,,,,,,,,,,,,,,,,,,"30.22","53","79","0.00",,,,"41","30.20","FEW:02 55 FEW:02 150 BKN:07 180","29.12","10.00","63","150",,"10",,,,,,,,,,,,,,,,,,,,,,,,,,,,,,,,,,,,,"MET13005/13/20 14:52:02 METAR KATL 131952Z 15009KT 10SM FEW055 FEW150 BKN180 26/12 A3022 RMK AO2 SLP227 VIRGA DSNT NW-NE T02610117 (KAF)","FM-15","7",,,,,,,,,,,,,,,,,,,,,,,,,,,,"2007-03-27"
"72219013874","2020-05-13T15:52:00","FM-15","7",,,,,,,,,,,,,,,,,,,,,,,,,,,,,,,,,,,,,,"30.20","50","79","0.00",,"+0.05","8","36","30.18","FEW:02 65 BKN:07 180 BKN:07 250","29.10","10.00","62","190","16","10",,,,,,,,,,,,,,,,,,,,,,,,,,,,,,,,,,,,,"MET13405/13/20 15:52:02 METAR KATL 132052Z 19009G14KT 10SM FEW065 BKN180 BKN250 26/10 A3020 RMK AO2 SLP219 VIRGA NW-NE T02610100 58018 (KAF)","FM-15","7",,,,,,,,,,,,,,,,,,,,,,,,,,,,"2007-03-27"
"72219013874","2020-05-13T16:52:00","FM-15","7",,,,,,,,,,,,,,,,,,,,,,,,,,,,,,,,,,,,,,"30.20","52","79","0.00",,,,"39","30.18","SCT:04 65 BKN:07 180 BKN:07 250","29.10","10.00","63","160",,"8",,,,,,,,,,,,,,,,,,,,,,,,,,,,,,,,,,,,,"MET11205/13/20 16:52:02 METAR KATL 132152Z 16007KT 10SM SCT065 BKN180 BKN250 26/11 A3020 RMK AO2 SLP220 T02610111 (RF)","FM-15","7",,,,,,,,,,,,,,,,,,,,,,,,,,,,"2007-03-27"
"72219013874","2020-05-13T17:52:00","FM-15","7",,,,,,,,,,,,,,,,,,,,,,,,,,,,,,,,,,,,,,"30.20","50","78","0.00",,,,"37","30.18","FEW:02 65 SCT:04 200 BKN:07 250","29.10","10.00","62","150",,"9",,,,,,,,,,,,,,,,,,,,,,,,,,,,,,,,,,,,,"MET11205/13/20 17:52:02 METAR KATL 132252Z 15008KT 10SM FEW065 SCT200 BKN250 26/10 A3020 RMK AO2 SLP219 T02560100 (RF)","FM-15","7",,,,,,,,,,,,,,,,,,,,,,,,,,,,"2007-03-27"
"72219013874","2020-05-13T18:52:00","FM-15","7",,,,,,,,,,,,,,,,,,,,,,,,,,,,,,,,,,,,,,"30.20","52","77","0.00",,"-0.00","3","42","30.18","FEW:02 65 SCT:04 200 BKN:07 250","29.10","10.00","62","170",,"6",,,,,,,,,,,,,,,,,,,,,,,,,,,,,,,,,,,,,"MET13005/13/20 18:52:02 METAR KATL 132352Z 17005KT 10SM FEW065 SCT200 BKN250 25/11 A3020 RMK AO2 SLP220 T02500111 10267 20239 53001 (RF)","FM-15","7",,,,,,,,,,,,,,,,,,,,,,,,,,,,"2007-03-27"
"72219013874","2020-05-13T19:00:00","FM-12","4",,,,,,,,,,,,,,,,,,,,,,,,,,,,,,,,,,,,,,,"52","77",,,"-0.00","3","42","30.18","57","29.09","9.94","62","170",,"6",,,,,,,,,,,,,,,,,,,,,,,,,,,,,,,,,,,,,"SYN08072219 32766 61705 10250 20111 39851 40220 53001 92352 333 10267 20133 555 91400=","FM-12","4",,,,,,,,,,,,,,,,,,,,,,,,,,,,"2007-03-27"
"72219013874","2020-05-13T19:52:00","FM-15","7",,,,,,,,,,,,,,,,,,,,,,,,,,,,,,,,,,,,,,"30.22","52","74","0.00",,,,"46","30.20","FEW:02 150 SCT:04 200 BKN:07 250","29.12","10.00","61","080",,"11",,,,,,,,,,,,,,,,,,,,,,,,,,,,,,,,,,,,,"MET10705/13/20 19:52:01 METAR KATL 140052Z 08010KT 10SM FEW150 SCT200 BKN250 23/11 A3022 RMK AO2 SLP226 T02330111","FM-15","7",,,,,,,,,,,,,,,,,,,,,,,,,,,,"2007-03-27"
"72219013874","2020-05-13T20:52:00","FM-15","7",,,,,,,,,,,,,,,,,,,,,,,,,,,,,,,,,,,,,,"30.23","57","69","0.00",,,,"66","30.22","FEW:02 150 BKN:07 200 BKN:07 250","29.13","10.00","62","080",,"13",,,,,,,,,,,,,,,,,,,,,,,,,,,,,,,,,,,,,"MET10705/13/20 20:52:01 METAR KATL 140152Z 08011KT 10SM FEW150 BKN200 BKN250 21/14 A3023 RMK AO2 SLP232 T02060139","FM-15","7",,,,,,,,,,,,,,,,,,,,,,,,,,,,"2007-03-27"
"72219013874","2020-05-13T21:52:00","FM-15","7",,,,,,,,,,,,,,,,,,,,,,,,,,,,,,,,,,,,,,"30.25","57","68","0.00",,"-0.05","1","68","30.23","SCT:04 200 BKN:07 250","29.15","10.00","61","090",,"11",,,,,,,,,,,,,,,,,,,,,,,,,,,,,,,,,,,,,"MET10805/13/20 21:52:01 METAR KATL 140252Z 09010KT 10SM SCT200 BKN250 20/14 A3025 RMK AO2 SLP237 T02000139 51016 $","FM-15","7",,,,,,,,,,,,,,,,,,,,,,,,,,,,"2007-03-27"
"72219013874","2020-05-13T22:52:00","FM-15","7",,,,,,,,,,,,,,,,,,,,,,,,,,,,,,,,,,,,,,"30.25","56","66","0.00",,,,"70","30.24","SCT:04 200","29.15","10.00","60","100",,"9",,,,,,,,,,,,,,,,,,,,,,,,,,,,,,,,,,,,,"MET09505/13/20 22:52:02 METAR KATL 140352Z 10008KT 10SM SCT200 19/13 A3025 RMK AO2 SLP239 T01890133 $","FM-15","7",,,,,,,,,,,,,,,,,,,,,,,,,,,,"2007-03-27"
"72219013874","2020-05-13T23:52:00","FM-15","7",,,,,,,,,,,,,,,,,,,,,,,,,,,,,,,,,,,,,,"30.25","55","65","0.00",,,,"70","30.23","FEW:02 200","29.15","10.00","59","100",,"6",,,,,,,,,,,,,,,,,,,,,,,,,,,,,,,,,,,,,"MET10505/13/20 23:52:02 METAR KATL 140452Z 10005KT 10SM FEW200 18/13 A3025 RMK AO2 SLP237 T01830128 402670133 $","FM-15","7",,,,,,,,,,,,,,,,,,,,,,,,,,,,"2007-03-27"
"72219013874","2020-05-13T23:59:00","SOD  ","6",,,,,,,,,,,,,,,"51","68","56","30.22","29.13","58","7.2","3","-1.3","0","80","56","080","21","0.00","0","0.0","080","16",,,,,,,,,,,,,,,,,,,,,,,,,,,,,,,,,,,,,,,,,,,,,,,,,,,,,,,,,"SOD73924 HR PRECIPITATION (IN): 0.00 SNOW DEPTH (IN):0     24 HR SNOWFALL (IN):0.0  24 HR MAX TEMP (F): 8024 HR MIN TEMP (F): 56AVERAGE STATION PRESSURE:29.125 MINIMUM SEA LEVEL PRESSURE:30.17 TIME OF OCCURRENCE:1634 PEAK WIND SPEED (MPH): 21 PEAK WIND DIR (DEG): 80 PEAK WIND TIME (LST):      FASTEST 2MIN SPEED (MPH): 16FASTEST 2MIN DIR (DEG): 80 FASTEST 2MIN TIME (LST):     AVERAGE WIND SPEED (MPH): 7.2 24 HR AVG TEMP (F): 68DEPART FROM NORMAL: -1  HEATING DEGREE DAYS:  0 COOLING DEGREE DAYS:  3 LATEST DAY MAX TEMP (0700-1900 LST):80  LATEST NIGHT MIN TEMP(1900-0800 LST):56 HOURLY INCREMENTAL PRECIPITATION VALUES (IN):.00 0.00 0.00 0.00 0.00 0.00 0.00 0.00 0.00 0.00 0.00 0.00 0.00 0.00 0.00 0.00 0.00 0.00 0.00 0.00 0.00 0.00 0.00 0.00","SOD  ","6",,,,,,,,,,,,,,,,,,,,,,,,,"0538","1931",,"2007-03-27"
"72219013874","2020-05-14T00:52:00","FM-15","7",,,,,,,,,,,,,,,,,,,,,,,,,,,,,,,,,,,,,,"30.23","55","64","0.00",,"+0.01","8","73","30.21","FEW:02 200","29.13","10.00","59","110",,"8",,,,,,,,,,,,,,,,,,,,,,,,,,,,,,,,,,,,,"MET11905/14/20 00:52:02 METAR KATL 140552Z 11007KT 10SM FEW200 18/13 A3023 RMK AO2 SLP231 T01780128 10250 20178 58005 $ (CPS)","FM-15","7",,,,,,,,,,,,,,,,,,,,,,,,,,,,"2007-03-27"
"72219013874","2020-05-14T01:00:00","FM-12","4",,,,,,,,,,,,,,,,,,,,,,,,,,,,,,,,,,,,,,,"55","64",,,"+0.01","8","73","30.21",,"29.12","9.94","59","110",,"8",,,,,,,,,,,,,,,,,,,,,,,,,,,,,,,,,,,,,"SYN08072219 32966 21107 10178 20128 39861 40231 58005 90552 333 10250 20133 555 91406=","FM-12","4",,,,,,,,,,,,,,,,,,,,,,,,,,,,"2007-03-27"
"72219013874","2020-05-14T01:52:00","FM-15","7",,,,,,,,,,,,,,,,,,,,,,,,,,,,,,,,,,,,,,"30.22","55","62","0.00",,,,"78","30.20","SCT:04 150 SCT:04 250","29.12","10.00","58","100",,"7",,,,,,,,,,,,,,,,,,,,,,,,,,,,,,,,,,,,,"MET10805/14/20 01:52:02 METAR KATL 140652Z 10006KT 10SM SCT150 SCT250 17/13 A3022 RMK AO2 SLP228 T01670128 $ (CPS)","FM-15","7",,,,,,,,,,,,,,,,,,,,,,,,,,,,"2007-03-27"
"72219013874","2020-05-14T02:52:00","FM-15","7",,,,,,,,,,,,,,,,,,,,,,,,,,,,,,,,,,,,,,"30.22","56","62","0.00",,,,"80","30.20","SCT:04 200 SCT:04 250","29.12","10.00","59","110",,"7",,,,,,,,,,,,,,,,,,,,,,,,,,,,,,,,,,,,,"MET10805/14/20 02:52:02 METAR KATL 140752Z 11006KT 10SM SCT200 SCT250 17/13 A3022 RMK AO2 SLP226 T01670133 $ (CPS)","FM-15","7",,,,,,,,,,,,,,,,,,,,,,,,,,,,"2007-03-27"
"72219013874","2020-05-14T03:52:00","FM-15","7",,,,,,,,,,,,,,,,,,,,,,,,,,,,,,,,,,,,,,"30.22","57","62","0.00",,"+0.01","5","84","30.20","SCT:04 180 BKN:07 250","29.12","10.00","59","120",,"7",,,,,,,,,,,,,,,,,,,,,,,,,,,,,,,,,,,,,"MET11205/14/20 03:52:02 METAR KATL 140852Z 12006KT 10SM SCT180 BKN250 17/14 A3022 RMK AO2 SLP227 T01670139 55004 (CPS)","FM-15","7",,,,,,,,,,,,,,,,,,,,,,,,,,,,"2007-03-27"
"72219013874","2020-05-14T04:52:00","FM-15","7",,,,,,,,,,,,,,,,,,,,,,,,,,,,,,,,,,,,,,"30.23","57","62","0.00",,,,"84","30.21","SCT:04 170 SCT:04 200 BKN:07 250","29.13","10.00","59","120",,"6",,,,,,,,,,,,,,,,,,,,,,,,,,,,,,,,,,,,,"MET11305/14/20 04:52:02 METAR KATL 140952Z 12005KT 10SM SCT170 SCT200 BKN250 17/14 A3023 RMK AO2 SLP231 T01670139 (CPS)","FM-15","7",,,,,,,,,,,,,,,,,,,,,,,,,,,,"2007-03-27"
"72219013874","2020-05-14T05:49:00","FM-16","7",,,,,,,,,,,,,,,,,,,,,,,,,,,,,,,,,,,,,,"30.26","57","61",,,,,"88",,"BKN:07 13 BKN:07 180 BKN:07 210","29.15","10.00","59","100",,"6",,,,,,,,,,,,,,,,,,,,,,,,,,,,,,,,,,,,,"MET09605/14/20 05:49:02 SPECI KATL 141049Z 10005KT 10SM BKN013 BKN180 BKN210 16/14 A3026 RMK AO2 (CPS)","FM-16","7",,,,,,,,,,,,,,,,,,,,,,,,,,,,"2007-03-27"
"72219013874","2020-05-14T05:52:00","FM-15","7",,,,,,,,,,,,,,,,,,,,,,,,,,,,,,,,,,,,,,"30.26","57","62","0.00",,,,"84","30.24","BKN:07 13 BKN:07 180 BKN:07 210","29.15","10.00","59","100",,"5",,,,,,,,,,,,,,,,,,,,,,,,,,,,,,,,,,,,,"MET11305/14/20 05:52:02 METAR KATL 141052Z 10004KT 10SM BKN013 BKN180 BKN210 17/14 A3026 RMK AO2 SLP241 T01670139 (CPS)","FM-15","7",,,,,,,,,,,,,,,,,,,,,,,,,,,,"2007-03-27"
"72219013874","2020-05-14T06:33:00","FM-16","6",,,,,,,,,,,,,,,,,,,,,,,,,,,,,,,,,,,,,,"30.28","57","62",,,,,"84",,"OVC:08 8","29.18","10.00","59","070",,"6",,,,,,,,,,,,,,,,,,,,,,,,,,,,,,,,,,,,,"MET09205/14/20 06:33:02 SPECI KATL 141133Z 07005KT 10SM OVC008 17/14 A3028 RMK AO2 T01670139 (CPS)","FM-16","6",,,,,,,,,,,,,,,,,,,,,,,,,,,,"2007-03-27"
"72219013874","2020-05-14T06:52:00","FM-15","7",,,,,,,,,,,,,,,,,,,,,,,,,,,,,,,,,,,,,,"30.29","57","62","0.00",,"-0.07","3","84","30.27","BKN:07 8 OVC:08 12","29.18","10.00","59","100",,"6",,,,,,,,,,,,,,,,,,,,,,,,,,,,,,,,,,,,,"MET12405/14/20 06:52:02 METAR KATL 141152Z 10005KT 10SM BKN008 OVC012 17/14 A3029 RMK AO2 SLP252 T01670139 10178 20161 53024 (CPS)","FM-15","7",,,,,,,,,,,,,,,,,,,,,,,,,,,,"2007-03-27"
"72219013874","2020-05-14T07:00:00","FM-12","4",,,,,,,,,,,,,,,,,,,,,,,,,,,,,,,,,,,,,,,"57","62",,,"-0.07","3","84","30.27","8","29.18","9.94","59","100",,"6",,,,,,,,,,,,,,,,,,,,,,,,,,,,,,,,,,,,,"SYN08072219 32366 81005 10167 20139 39880 40252 53024 91152 333 10267 20161 555 91412=","FM-12","4",,,,,,,,,,,,,,,,,,,,,,,,,,,,"2007-03-27"
"72219013874","2020-05-14T07:52:00","FM-15","7",,,,,,,,,,,,,,,,,,,,,,,,,,,,,,,,,,,,,,"30.31","59","64","0.00",,,,"84","30.29","BKN:07 9 OVC:08 15","29.21","10.00","61","130",,"6",,,,,,,,,,,,,,,,,,,,,,,,,,,,,,,,,,,,,"MET10605/14/20 07:52:02 METAR KATL 141252Z 13005KT 10SM BKN009 OVC015 18/15 A3031 RMK AO2 SLP257 T01780150 (CPS)","FM-15","7",,,,,,,,,,,,,,,,,,,,,,,,,,,,"2007-03-27"
"72219013874","2020-05-14T08:22:00","FM-16","7",,,,,,,,,,,,,,,,,,,,,,,,,,,,,,,,,,,,,,"30.31","59","65",,,,,"81",,"OVC:08 11","29.21","10.00","61","160",,"6",,,,,,,,,,,,,,,,,,,,,,,,,,,,,,,,,,,,,"MET09205/14/20 08:22:02 SPECI KATL 141322Z 16005KT 10SM OVC011 18/15 A3031 RMK AO2 T01830150 (KAF)","FM-16","7",,,,,,,,,,,,,,,,,,,,,,,,,,,,"2007-03-27"
"72219013874","2020-05-14T08:52:00","FM-15","7",,,,,,,,,,,,,,,,,,,,,,,,,,,,,,,,,,,,,,"30.31","59","66","0.00",,,,"78","30.29","OVC:08 13","29.21","10.00","62","VRB",,"5",,,,,,,,,,,,,,,,,,,,,,,,,,,,,,,,,,,,,"MET11805/14/20 08:52:02 METAR KATL 141352Z VRB04KT 10SM OVC013 19/15 A3031 RMK AO2 SLP259 CIG 011V015 BINOVC T01890150 (KAF)","FM-15","7",,,,,,,,,,,,,,,,,,,,,,,,,,,,"2007-03-27"
"72219013874","2020-05-14T09:19:00","FM-16","7",,,,,,,,,,,,,,,,,,,,,,,,,,,,,,,,,,,,,,"30.31","59","68",,,,,"73",,"OVC:08 15","29.21","10.00","63","160",,"9",,,,,,,,,,,,,,,,,,,,,,,,,,,,,,,,,,,,,"MET11105/14/20 09:19:02 SPECI KATL 141419Z 16008KT 10SM OVC015 20/15 A3031 RMK AO2 CIG 013V017 BINOVC T02000150 (KAF)","FM-16","7",,,,,,,,,,,,,,,,,,,,,,,,,,,,"2007-03-27"
"72219013874","2020-05-14T09:52:00","FM-15","7",,,,,,,,,,,,,,,,,,,,,,,,,,,,,,,,,,,,,,"30.30","59","69","0.00",,"-0.01","0","70","30.28","BKN:07 17 BKN:07 180 BKN:07 250","29.19","10.00","63","VRB",,"9",,,,,,,,,,,,,,,,,,,,,,,,,,,,,,,,,,,,,"MET13105/14/20 09:52:02 METAR KATL 141452Z 16008KT 10SM BKN017 BKN180 BKN250 21/15 A3030 RMK AO2 SLP255 CIG 015V019 T02060150 50002 (KAF)","FM-15","7",,,,,,,,,,,,,,,,,,,,,,,,,,,,"2007-03-27"
"72219013874","2020-05-14T10:45:00","FM-16","7",,,,,,,,,,,,,,,,,,,,,,,,,,,,,,,,,,,,,,"30.30","59","72",,,,,"64",,"SCT:04 26 BKN:07 180 BKN:07 250","29.19","10.00","64","130",,"6",,,,,,,,,,,,,,,,,,,,,,,,,,,,,,,,,,,,,"MET10605/14/20 10:45:02 SPECI KATL 141545Z 13005KT 10SM SCT026 BKN180 BKN250 22/15 A3030 RMK AO2 T02220150 (KAF)","FM-16","7",,,,,,,,,,,,,,,,,,,,,,,,,,,,"2007-03-27"
"72219013874","2020-05-14T10:52:00","FM-15","7",,,,,,,,,,,,,,,,,,,,,,,,,,,,,,,,,,,,,,"30.29","59","72","0.00",,,,"64","30.28","SCT:04 26 BKN:07 180 BKN:07 250","29.18","10.00","64","150",,"5",,,,,,,,,,,,,,,,,,,,,,,,,,,,,,,,,,,,,"MET11305/14/20 10:52:02 METAR KATL 141552Z 15004KT 10SM SCT026 BKN180 BKN250 22/15 A3029 RMK AO2 SLP253 T02220150 (KAF)","FM-15","7",,,,,,,,,,,,,,,,,,,,,,,,,,,,"2007-03-27"
"72219013874","2020-05-14T11:52:00","FM-15","7",,,,,,,,,,,,,,,,,,,,,,,,,,,,,,,,,,,,,,"30.28","59","76","0.00",,,,"56","30.26","SCT:04 34 SCT:04 180 BKN:07 250","29.18","10.00","65","150",,"8",,,,,,,,,,,,,,,,,,,,,,,,,,,,,,,,,,,,,"MET11305/14/20 11:52:02 METAR KATL 141652Z 15007KT 10SM SCT034 SCT180 BKN250 24/15 A3028 RMK AO2 SLP246 T02440150 (KAF)","FM-15","7",,,,,,,,,,,,,,,,,,,,,,,,,,,,"2007-03-27"
"72219013874","2020-05-14T12:52:00","FM-15","7",,,,,,,,,,,,,,,,,,,,,,,,,,,,,,,,,,,,,,"30.25","59","78","0.00",,"+0.05","8","52","30.23","SCT:04 38 SCT:04 180 BKN:07 250","29.15","10.00","66","150",,"10",,,,,,,,,,,,,,,,,,,,,,,,,,,,,,,,,,,,,"MET13105/14/20 12:52:02 METAR KATL 141752Z 15009KT 10SM SCT038 SCT180 BKN250 26/15 A3025 RMK AO2 SLP236 T02560150 10256 20167 58017 (KAF)","FM-15","7",,,,,,,,,,,,,,,,,,,,,,,,,,,,"2007-03-27"
"72219013874","2020-05-14T13:00:00","FM-12","4",,,,,,,,,,,,,,,,,,,,,,,,,,,,,,,,,,,,,,,"59","78",,,"+0.05","8","52","30.23","41","29.14","9.94","66","150",,"10",,,,,,,,,,,,,,,,,,,,,,,,,,,,,,,,,,,,,"SYN08072219 32666 61509 10256 20150 39867 40236 58017 91752 333 10256 20167 555 91418=","FM-12","4",,,,,,,,,,,,,,,,,,,,,,,,,,,,"2007-03-27"
"72219013874","2020-05-14T13:52:00","FM-15","7",,,,,,,,,,,,,,,,,,,,,,,,,,,,,,,,,,,,,,"30.23","57","80","0.00",,,,"45","30.20","SCT:04 44 SCT:04 180 SCT:04 250","29.13","10.00","66","VRB",,"9",,,,,,,,,,,,,,,,,,,,,,,,,,,,,,,,,,,,,"MET11305/14/20 13:52:02 METAR KATL 141852Z 15008KT 10SM SCT044 SCT180 SCT250 27/14 A3023 RMK AO2 SLP228 T02670139 (KAF)","FM-15","7",,,,,,,,,,,,,,,,,,,,,,,,,,,,"2007-03-27"
"72219013874","2020-05-14T14:52:00","FM-15","7",,,,,,,,,,,,,,,,,,,,,,,,,,,,,,,,,,,,,,"30.20","56","82","0.00",,,,"41","30.17","FEW:02 50 SCT:04 180 SCT:04 250","29.10","10.00","66","160",,"9",,,,,,,,,,,,,,,,,,,,,,,,,,,,,,,,,,,,,"MET11305/14/20 14:52:02 METAR KATL 141952Z 16008KT 10SM FEW050 SCT180 SCT250 28/13 A3020 RMK AO2 SLP218 T02780133 (KAF)","FM-15","7",,,,,,,,,,,,,,,,,,,,,,,,,,,,"2007-03-27"
"72219013874","2020-05-14T15:52:00","FM-15","7",,,,,,,,,,,,,,,,,,,,,,,,,,,,,,,,,,,,,,"30.18","55","82","0.00",,"+0.07","8","40","30.15","FEW:02 60 SCT:04 180 SCT:04 250","29.08","10.00","65","140","18","11",,,,,,,,,,,,,,,,,,,,,,,,,,,,,,,,,,,,,"MET12205/14/20 15:52:02 METAR KATL 142052Z 14010G16KT 10SM FEW060 SCT180 SCT250 28/13 A3018 RMK AO2 SLP210 T02780128 58024 (KAF)","FM-15","7",,,,,,,,,,,,,,,,,,,,,,,,,,,,"2007-03-27"
"72219013874","2020-05-14T16:52:00","FM-15","7",,,,,,,,,,,,,,,,,,,,,,,,,,,,,,,,,,,,,,"30.16","53","81","0.00",,,,"38","30.13","SCT:04 60 SCT:04 250","29.06","10.00","64","140",,"8",,,,,,,,,,,,,,,,,,,,,,,,,,,,,,,,,,,,,"MET10505/14/20 16:52:02 METAR KATL 142152Z 14007KT 10SM SCT060 SCT250 27/12 A3016 RMK AO2 SLP204 T02720117 (RF)","FM-15","7",,,,,,,,,,,,,,,,,,,,,,,,,,,,"2007-03-27"
"72219013874","2020-05-14T17:52:00","FM-15","7",,,,,,,,,,,,,,,,,,,,,,,,,,,,,,,,,,,,,,"30.15","51","79","0.00",,,,"38","30.13","FEW:02 60 SCT:04 250","29.05","10.00","63","160",,"11",,,,,,,,,,,,,,,,,,,,,,,,,,,,,,,,,,,,,"MET10505/14/20 17:52:02 METAR KATL 142252Z 16010KT 10SM FEW060 SCT250 26/11 A3015 RMK AO2 SLP202 T02610106 (RF)","FM-15","7",,,,,,,,,,,,,,,,,,,,,,,,,,,,"2007-03-27"
"72219013874","2020-05-14T18:52:00","FM-15","7",,,,,,,,,,,,,,,,,,,,,,,,,,,,,,,,,,,,,,"30.15","53","78","0.00",,"+0.03","6","42","30.12","FEW:02 60 BKN:07 250","29.05","10.00","63","150",,"9",,,,,,,,,,,,,,,,,,,,,,,,,,,,,,,,,,,,,"MET12305/14/20 18:52:02 METAR KATL 142352Z 15008KT 10SM FEW060 BKN250 26/12 A3015 RMK AO2 SLP201 T02560117 10283 20256 56009 (RF)","FM-15","7",,,,,,,,,,,,,,,,,,,,,,,,,,,,"2007-03-27"
"72219013874","2020-05-14T19:00:00","FM-12","4",,,,,,,,,,,,,,,,,,,,,,,,,,,,,,,,,,,,,,,"53","78",,,"+0.03","6","42","30.12","57","29.04","9.94","63","150",,"9",,,,,,,,,,,,,,,,,,,,,,,,,,,,,,,,,,,,,"SYN08072219 32766 61508 10256 20117 39834 40201 56009 92352 333 10283 20161 555 91500=","FM-12","4",,,,,,,,,,,,,,,,,,,,,,,,,,,,"2007-03-27"
"72219013874","2020-05-14T19:52:00","FM-15","7",,,,,,,,,,,,,,,,,,,,,,,,,,,,,,,,,,,,,,"30.17","54","75","0.00",,,,"48","30.15","FEW:02 60 BKN:07 250","29.07","10.00","63","150",,"6",,,,,,,,,,,,,,,,,,,,,,,,,,,,,,,,,,,,,"MET10005/14/20 19:52:01 METAR KATL 150052Z 15005KT 10SM FEW060 BKN250 24/12 A3017 RMK AO2 SLP210 T02390122","FM-15","7",,,,,,,,,,,,,,,,,,,,,,,,,,,,"2007-03-27"
"72219013874","2020-05-14T20:52:00","FM-15","7",,,,,,,,,,,,,,,,,,,,,,,,,,,,,,,,,,,,,,"30.17","54","73","0.00",,,,"51","30.15","FEW:02 150 BKN:07 250","29.07","10.00","62","140",,"5",,,,,,,,,,,,,,,,,,,,,,,,,,,,,,,,,,,,,"MET10005/14/20 20:52:01 METAR KATL 150152Z 14004KT 10SM FEW150 BKN250 23/12 A3017 RMK AO2 SLP211 T02280122","FM-15","7",,,,,,,,,,,,,,,,,,,,,,,,,,,,"2007-03-27"
"72219013874","2020-05-14T21:52:00","FM-15","7",,,,,,,,,,,,,,,,,,,,,,,,,,,,,,,,,,,,,,"30.19","55","72","0.00",,"-0.04","1","55","30.16","FEW:02 55 BKN:07 250","29.09","10.00","62","120",,"5",,,,,,,,,,,,,,,,,,,,,,,,,,,,,,,,,,,,,"MET10605/14/20 21:52:01 METAR KATL 150252Z 12004KT 10SM FEW055 BKN250 22/13 A3019 RMK AO2 SLP215 T02220128 51013","FM-15","7",,,,,,,,,,,,,,,,,,,,,,,,,,,,"2007-03-27"
"72219013874","2020-05-14T22:52:00","FM-15","7",,,,,,,,,,,,,,,,,,,,,,,,,,,,,,,,,,,,,,"30.18","55","71","0.00",,,,"57","30.16","BKN:07 50 BKN:07 250","29.08","10.00","62","130",,"6",,,,,,,,,,,,,,,,,,,,,,,,,,,,,,,,,,,,,"MET10005/14/20 22:52:02 METAR KATL 150352Z 13005KT 10SM BKN050 BKN250 22/13 A3018 RMK AO2 SLP213 T02170128","FM-15","7",,,,,,,,,,,,,,,,,,,,,,,,,,,,"2007-03-27"
"72219013874","2020-05-14T23:52:00","FM-15","7",,,,,,,,,,,,,,,,,,,,,,,,,,,,,,,,,,,,,,"30.18","56","69","0.00",,,,"63","30.15","FEW:02 50 BKN:07 250","29.08","10.00","61","140",,"8",,,,,,,,,,,,,,,,,,,,,,,,,,,,,,,,,,,,,"MET11005/14/20 23:52:02 METAR KATL 150452Z 14007KT 10SM FEW050 BKN250 21/13 A3018 RMK AO2 SLP211 T02060133 402830161","FM-15","7",,,,,,,,,,,,,,,,,,,,,,,,,,,,"2007-03-27"
"72219013874","2020-05-14T23:59:00","SOD  ","6",,,,,,,,,,,,,,,"56","72","62","30.20","29.13","62","7.3","7","2.4","0","83","61","140","20","0.00","0","0.0","120","15",,,,,,,,,,,,,,,,,,,,,,,,,,,,,,,,,,,,,,,,,,,,,,,,,,,,,,,,,"SOD73924 HR PRECIPITATION (IN): 0.00 SNOW DEPTH (IN):0     24 HR SNOWFALL (IN):0.0  24 HR MAX TEMP (F): 8324 HR MIN TEMP (F): 61AVERAGE STATION PRESSURE:29.125 MINIMUM SEA LEVEL PRESSURE:30.12 TIME OF OCCURRENCE:1853 PEAK WIND SPEED (MPH): 20 PEAK WIND DIR (DEG):140 PEAK WIND TIME (LST):      FASTEST 2MIN SPEED (MPH): 15FASTEST 2MIN DIR (DEG):120 FASTEST 2MIN TIME (LST):     AVERAGE WIND SPEED (MPH): 7.3 24 HR AVG TEMP (F): 72DEPART FROM NORMAL:  2  HEATING DEGREE DAYS:  0 COOLING DEGREE DAYS:  7 LATEST DAY MAX TEMP (0700-1900 LST):83  LATEST NIGHT MIN TEMP(1900-0800 LST):61 HOURLY INCREMENTAL PRECIPITATION VALUES (IN):.00 0.00 0.00 0.00 0.00 0.00 0.00 0.00 0.00 0.00 0.00 0.00 0.00 0.00 0.00 0.00 0.00 0.00 0.00 0.00 0.00 0.00 0.00 0.00","SOD  ","6",,,,,,,,,,,,,,,,,,,,,,,,,"0537","1931",,"2007-03-27"
"72219013874","2020-05-15T00:52:00","FM-15","7",,,,,,,,,,,,,,,,,,,,,,,,,,,,,,,,,,,,,,"30.18","56","67","0.00",,"+0.00","5","68","30.16","FEW:02 50 BKN:07 250","29.08","10.00","61","150",,"8",,,,,,,,,,,,,,,,,,,,,,,,,,,,,,,,,,,,,"MET12605/15/20 00:52:02 METAR KATL 150552Z 15007KT 10SM FEW050 BKN250 19/13 A3018 RMK AO2 SLP212 T01940133 10256 20194 55001 $ (CPS)","FM-15","7",,,,,,,,,,,,,,,,,,,,,,,,,,,,"2007-03-27"
"72219013874","2020-05-15T01:00:00","FM-12","4",,,,,,,,,,,,,,,,,,,,,,,,,,,,,,,,,,,,,,,"56","67",,,"+0.00","5","68","30.16","57","29.07","9.94","61","150",,"8",,,,,,,,,,,,,,,,,,,,,,,,,,,,,,,,,,,,,"SYN08072219 32766 61507 10194 20133 39844 40212 55001 90552 333 10256 20161 555 91506=","FM-12","4",,,,,,,,,,,,,,,,,,,,,,,,,,,,"2007-03-27"
"72219013874","2020-05-15T01:52:00","FM-15","7",,,,,,,,,,,,,,,,,,,,,,,,,,,,,,,,,,,,,,"30.16","56","66","0.00",,,,"70","30.14","FEW:02 200 BKN:07 250","29.06","10.00","60","150",,"8",,,,,,,,,,,,,,,,,,,,,,,,,,,,,,,,,,,,,"MET10805/15/20 01:52:02 METAR KATL 150652Z 15007KT 10SM FEW200 BKN250 19/13 A3016 RMK AO2 SLP205 T01890133 $ (CPS)","FM-15","7",,,,,,,,,,,,,,,,,,,,,,,,,,,,"2007-03-27"
"72219013874","2020-05-15T02:52:00","FM-15","7",,,,,,,,,,,,,,,,,,,,,,,,,,,,,,,,,,,,,,"30.14","56","64","0.00",,,,"75","30.11","FEW:02 200 BKN:07 250","29.04","10.00","59","140",,"6",,,,,,,,,,,,,,,,,,,,,,,,,,,,,,,,,,,,,"MET10805/15/20 02:52:02 METAR KATL 150752Z 14005KT 10SM FEW200 BKN250 18/13 A3014 RMK AO2 SLP198 T01780133 $ (CPS)","FM-15","7",,,,,,,,,,,,,,,,,,,,,,,,,,,,"2007-03-27"
"72219013874","2020-05-15T03:52:00","FM-15","7",,,,,,,,,,,,,,,,,,,,,,,,,,,,,,,,,,,,,,"30.13","56","63","0.00",,"+0.05","6","78","30.10","FEW:02 200 BKN:07 250","29.03","10.00","59","150",,"8",,,,,,,,,,,,,,,,,,,,,,,,,,,,,,,,,,,,,"MET11405/15/20 03:52:02 METAR KATL 150852Z 15007KT 10SM FEW200 BKN250 17/13 A3013 RMK AO2 SLP194 T01720133 56018 $ (CPS)","FM-15","7",,,,,,,,,,,,,,,,,,,,,,,,,,,,"2007-03-27"
"72219013874","2020-05-15T04:52:00","FM-15","7",,,,,,,,,,,,,,,,,,,,,,,,,,,,,,,,,,,,,,"30.14","56","62","0.00",,,,"80","30.11","SCT:04 200 BKN:07 250","29.04","10.00","59","130",,"5",,,,,,,,,,,,,,,,,,,,,,,,,,,,,,,,,,,,,"MET10805/15/20 04:52:02 METAR KATL 150952Z 13004KT 10SM SCT200 BKN250 17/13 A3014 RMK AO2 SLP197 T01670133 $ (CPS)","FM-15","7",,,,,,,,,,,,,,,,,,,,,,,,,,,,"2007-03-27"
"72219013874","2020-05-15T05:52:00","FM-15","7",,,,,,,,,,,,,,,,,,,,,,,,,,,,,,,,,,,,,,"30.16","56","61","0.00",,,,"84","30.14","FEW:02 15 FEW:02 150 BKN:07 200","29.06","10.00","58","140",,"3",,,,,,,,,,,,,,,,,,,,,,,,,,,,,,,,,,,,,"MET12705/15/20 05:52:02 METAR KATL 151052Z 14003KT 10SM FEW015 FEW150 BKN200 16/13 A3016 RMK AO2 SLP205 VIRGA S & W-N T01610133 (CPS)","FM-15","7",,,,,,,,,,,,,,,,,,,,,,,,,,,,"2007-03-27"
"72219013874","2020-05-15T06:52:00","FM-15","7",,,,,,,,,,,,,,,,,,,,,,,,,,,,,,,,,,,,,,"30.18","57","63","0.00",,"-0.05","3","81","30.16","FEW:02 15 FEW:02 150 BKN:07 200","29.08","10.00","60","140",,"5",,,,,,,,,,,,,,,,,,,,,,,,,,,,,,,,,,,,,"MET14105/15/20 06:52:02 METAR KATL 151152Z 14004KT 10SM FEW015 FEW150 BKN200 17/14 A3018 RMK AO2 SLP213 VIRGA W-N T01720139 10194 20161 53017 (CPS)","FM-15","7",,,,,,,,,,,,,,,,,,,,,,,,,,,,"2007-03-27"
"72219013874","2020-05-15T07:00:00","FM-12","4",,,,,,,,,,,,,,,,,,,,,,,,,,,,,,,,,,,,,,,"57","63",,,"-0.05","3","81","30.16","15","29.07","9.94","60","140",,"5",,,,,,,,,,,,,,,,,,,,,,,,,,,,,,,,,,,,,"SYN08072219 32466 61404 10172 20139 39844 40213 53017 91152 333 10283 20161 555 91512=","FM-12","4",,,,,,,,,,,,,,,,,,,,,,,,,,,,"2007-03-27"
"72219013874","2020-05-15T07:52:00","FM-15","7",,,,,,,,,,,,,,,,,,,,,,,,,,,,,,,,,,,,,,"30.18","58","64","0.00",,,,"81","30.16","FEW:02 15 FEW:02 160 BKN:07 200","29.08","10.00","60","150",,"7",,,,,,,,,,,,,,,,,,,,,,,,,,,,,,,,,,,,,"MET13005/15/20 07:52:02 METAR KATL 151252Z 15006KT 10SM FEW015 FEW160 BKN200 18/14 A3018 RMK AO2 SLP214 VIRGA OHD & NE-E T01780144 (CPS)","FM-15","7",,,,,,,,,,,,,,,,,,,,,,,,,,,,"2007-03-27"
"72219013874","2020-05-15T08:52:00","FM-15","7",,,,,,,,,,,,,,,,,,,,,,,,,,,,,,,,,,,,,,"30.19","59","69","0.00",,,,"70","30.17","SCT:04 16 BKN:07 180 BKN:07 250","29.09","10.00","63","180",,"8",,,,,,,,,,,,,,,,,,,,,,,,,,,,,,,,,,,,,"MET11305/15/20 08:52:02 METAR KATL 151352Z 18007KT 10SM SCT016 BKN180 BKN250 21/15 A3019 RMK AO2 SLP217 T02060150 (KAF)","FM-15","7",,,,,,,,,,,,,,,,,,,,,,,,,,,,"2007-03-27"
"72219013874","2020-05-15T09:52:00","FM-15","7",,,,,,,,,,,,,,,,,,,,,,,,,,,,,,,,,,,,,,"30.18","59","72","0.00",,"+0.01","8","64","30.15","FEW:02 23 BKN:07 180 BKN:07 250","29.08","10.00","64","160",,"10",,,,,,,,,,,,,,,,,,,,,,,,,,,,,,,,,,,,,"MET11905/15/20 09:52:02 METAR KATL 151452Z 16009KT 10SM FEW023 BKN180 BKN250 22/15 A3018 RMK AO2 SLP210 T02220150 58002 (KAF)","FM-15","7",,,,,,,,,,,,,,,,,,,,,,,,,,,,"2007-03-27"
"72219013874","2020-05-15T10:52:00","FM-15","7",,,,,,,,,,,,,,,,,,,,,,,,,,,,,,,,,,,,,,"30.18","58","73","0.00",,,,"59","30.15","SCT:04 30 BKN:07 180 BKN:07 250","29.08","10.00","64","160",,"10",,,,,,,,,,,,,,,,,,,,,,,,,,,,,,,,,,,,,"MET11305/15/20 10:52:02 METAR KATL 151552Z 16009KT 10SM SCT030 BKN180 BKN250 23/14 A3018 RMK AO2 SLP210 T02280144 (KAF)","FM-15","7",,,,,,,,,,,,,,,,,,,,,,,,,,,,"2007-03-27"
"72219013874","2020-05-15T11:52:00","FM-15","7",,,,,,,,,,,,,,,,,,,,,,,,,,,,,,,,,,,,,,"30.16","58","74","0.00",,,,"57","30.14","SCT:04 34 BKN:07 200 BKN:07 250","29.06","10.00","64","160",,"10",,,,,,,,,,,,,,,,,,,,,,,,,,,,,,,,,,,,,"MET11305/15/20 11:52:02 METAR KATL 151652Z 16009KT 10SM SCT034 BKN200 BKN250 23/14 A3016 RMK AO2 SLP205 T02330144 (KAF)","FM-15","7",,,,,,,,,,,,,,,,,,,,,,,,,,,,"2007-03-27"
"72219013874","2020-05-15T12:52:00","FM-15","7",,,,,,,,,,,,,,,,,,,,,,,,,,,,,,,,,,,,,,"30.14","58","75","0.00",,"+0.03","8","55","30.12","FEW:02 36 SCT:04 200 BKN:07 250","29.04","10.00","65","120",,"8",,,,,,,,,,,,,,,,,,,,,,,,,,,,,,,,,,,,,"MET13105/15/20 12:52:02 METAR KATL 151752Z 12007KT 10SM FEW036 SCT200 BKN250 24/14 A3014 RMK AO2 SLP200 T02390144 10244 20172 58011 (KAF)","FM-15","7",,,,,,,,,,,,,,,,,,,,,,,,,,,,"2007-03-27"
"72219013874","2020-05-15T13:00:00","FM-12","4",,,,,,,,,,,,,,,,,,,,,,,,,,,,,,,,,,,,,,,"58","75",,,"+0.03","8","55","30.12","41","29.03","9.94","65","120",,"8",,,,,,,,,,,,,,,,,,,,,,,,,,,,,,,,,,,,,"SYN08072219 32666 61207 10239 20144 39831 40200 58011 91752 333 10244 20172 555 91518=","FM-12","4",,,,,,,,,,,,,,,,,,,,,,,,,,,,"2007-03-27"
"72219013874","2020-05-15T13:52:00","FM-15","7",,,,,,,,,,,,,,,,,,,,,,,,,,,,,,,,,,,,,,"30.11","56","77","0.00",,,,"48","30.08","FEW:02 44 SCT:04 200 SCT:04 250","29.01","10.00","64","130","16","9",,,,,,,,,,,,,,,,,,,,,,,,,,,,,,,,,,,,,"MET11605/15/20 13:52:02 METAR KATL 151852Z 13008G14KT 10SM FEW044 SCT200 SCT250 25/13 A3011 RMK AO2 SLP187 T02500133 (KAF)","FM-15","7",,,,,,,,,,,,,,,,,,,,,,,,,,,,"2007-03-27"
"72219013874","2020-05-15T14:52:00","FM-15","7",,,,,,,,,,,,,,,,,,,,,,,,,,,,,,,,,,,,,,"30.09","57","80","0.00",,,,"45","30.06","FEW:02 46 SCT:04 200 SCT:04 250","28.99","10.00","66","150",,"10",,,,,,,,,,,,,,,,,,,,,,,,,,,,,,,,,,,,,"MET11305/15/20 14:52:02 METAR KATL 151952Z 15009KT 10SM FEW046 SCT200 SCT250 27/14 A3009 RMK AO2 SLP181 T02670139 (KAF)","FM-15","7",,,,,,,,,,,,,,,,,,,,,,,,,,,,"2007-03-27"
"72219013874","2020-05-15T15:52:00","FM-15","7",,,,,,,,,,,,,,,,,,,,,,,,,,,,,,,,,,,,,,"30.07","56","79","0.00",,"+0.07","6","45","30.05","FEW:02 50 SCT:04 180 SCT:04 250","28.97","10.00","65","160",,"7",,,,,,,,,,,,,,,,,,,,,,,,,,,,,,,,,,,,,"MET11905/15/20 15:52:02 METAR KATL 152052Z 16006KT 10SM FEW050 SCT180 SCT250 26/13 A3007 RMK AO2 SLP176 T02610133 56023 (KAF)","FM-15","7",,,,,,,,,,,,,,,,,,,,,,,,,,,,"2007-03-27"
"72219013874","2020-05-15T16:52:00","FM-15","7",,,,,,,,,,,,,,,,,,,,,,,,,,,,,,,,,,,,,,"30.05","56","79","0.00",,,,"45","30.03","SCT:04 55 SCT:04 200","28.95","10.00","65","160",,"7",,,,,,,,,,,,,,,,,,,,,,,,,,,,,,,,,,,,,"MET10505/15/20 16:52:02 METAR KATL 152152Z 16006KT 10SM SCT055 SCT200 26/13 A3005 RMK AO2 SLP170 T02610133 (RF)","FM-15","7",,,,,,,,,,,,,,,,,,,,,,,,,,,,"2007-03-27"
"72219013874","2020-05-15T17:52:00","FM-15","7",,,,,,,,,,,,,,,,,,,,,,,,,,,,,,,,,,,,,,"30.05","55","80","0.00",,,,"42","30.03","SCT:04 55 SCT:04 200","28.95","10.00","65","130",,"6",,,,,,,,,,,,,,,,,,,,,,,,,,,,,,,,,,,,,"MET10505/15/20 17:52:02 METAR KATL 152252Z 13005KT 10SM SCT055 SCT200 27/13 A3005 RMK AO2 SLP168 T02670128 (RF)","FM-15","7",,,,,,,,,,,,,,,,,,,,,,,,,,,,"2007-03-27"
"72219013874","2020-05-15T18:52:00","FM-15","7",,,,,,,,,,,,,,,,,,,,,,,,,,,,,,,,,,,,,,"30.04","55","78","0.00",,"+0.03","6","45","30.02","FEW:02 55 SCT:04 250","28.94","10.00","64","150",,"6",,,,,,,,,,,,,,,,,,,,,,,,,,,,,,,,,,,,,"MET12305/15/20 18:52:02 METAR KATL 152352Z 15005KT 10SM FEW055 SCT250 26/13 A3004 RMK AO2 SLP167 T02560128 10272 20244 56009 (RF)","FM-15","7",,,,,,,,,,,,,,,,,,,,,,,,,,,,"2007-03-27"
"72219013874","2020-05-15T19:00:00","FM-12","4",,,,,,,,,,,,,,,,,,,,,,,,,,,,,,,,,,,,,,,"55","78",,,"+0.03","6","45","30.02","57","28.93","9.94","64","150",,"6",,,,,,,,,,,,,,,,,,,,,,,,,,,,,,,,,,,,,"SYN08072219 32766 41505 10256 20128 39798 40167 56009 92352 333 10272 20161 555 91600=","FM-12","4",,,,,,,,,,,,,,,,,,,,,,,,,,,,"2007-03-27"
"72219013874","2020-05-15T19:52:00","FM-15","7",,,,,,,,,,,,,,,,,,,,,,,,,,,,,,,,,,,,,,"30.06","55","75","0.00",,,,"50","30.04","FEW:02 2 FEW:02 55 SCT:04 250","28.96","10.00","63","140",,"5",,,,,,,,,,,,,,,,,,,,,,,,,,,,,,,,,,,,,"MET11705/15/20 19:52:01 METAR KATL 160052Z 14004KT 10SM FEW002 FEW055 SCT250 24/13 A3006 RMK AO2 SLP172 FU FEW002 T02390128","FM-15","7",,,,,,,,,,,,,,,,,,,,,,,,,,,,"2007-03-27"
"72219013874","2020-05-15T20:52:00","FM-15","7",,,,,,,,,,,,,,,,,,,,,,,,,,,,,,,,,,,,,,"30.07","56","73","0.00",,,,"55","30.05","FEW:02 55 SCT:04 250","28.97","10.00","63","130",,"3",,,,,,,,,,,,,,,,,,,,,,,,,,,,,,,,,,,,,"MET10005/15/20 20:52:01 METAR KATL 160152Z 13003KT 10SM FEW055 SCT250 23/13 A3007 RMK AO2 SLP176 T02280133","FM-15","7",,,,,,,,,,,,,,,,,,,,,,,,,,,,"2007-03-27"
"72219013874","2020-05-15T21:52:00","FM-15","7",,,,,,,,,,,,,,,,,,,,,,,,,,,,,,,,,,,,,,"30.07","56","70","0.00",,"-0.03","1","61","30.05","FEW:02 250","28.97","10.00","62","130",,"3",,,,,,,,,,,,,,,,,,,,,,,,,,,,,,,,,,,,,"MET09905/15/20 21:52:01 METAR KATL 160252Z 13003KT 10SM FEW250 21/13 A3007 RMK AO2 SLP177 T02110133 51010","FM-15","7",,,,,,,,,,,,,,,,,,,,,,,,,,,,"2007-03-27"
"72219013874","2020-05-15T22:52:00","FM-15","7",,,,,,,,,,,,,,,,,,,,,,,,,,,,,,,,,,,,,,"30.07","56","69","0.00",,,,"63","30.05","FEW:02 250","28.97","10.00","61","140",,"5",,,,,,,,,,,,,,,,,,,,,,,,,,,,,,,,,,,,,"MET09305/15/20 22:52:02 METAR KATL 160352Z 14004KT 10SM FEW250 21/13 A3007 RMK AO2 SLP176 T02060133","FM-15","7",,,,,,,,,,,,,,,,,,,,,,,,,,,,"2007-03-27"
"72219013874","2020-05-15T23:52:00","FM-15","7",,,,,,,,,,,,,,,,,,,,,,,,,,,,,,,,,,,,,,"30.06","57","67","0.00",,,,"71","30.04","SCT:04 250","28.96","10.00","61","140",,"3",,,,,,,,,,,,,,,,,,,,,,,,,,,,,,,,,,,,,"MET10305/15/20 23:52:02 METAR KATL 160452Z 14003KT 10SM SCT250 19/14 A3006 RMK AO2 SLP172 T01940139 402720161","FM-15","7",,,,,,,,,,,,,,,,,,,,,,,,,,,,"2007-03-27"
"72219013874","2020-05-15T23:59:00","SOD  ","6",,,,,,,,,,,,,,,"57","71","62","30.10","29.03","62","6.7","6","1.1","0","81","61","150","18","0.00","0","0.0","150","14",,,,,,,,,,,,,,,,,,,,,,,,,,,,,,,,,,,,,,,,,,,,,,,,,,,,,,,,,"SOD73924 HR PRECIPITATION (IN): 0.00 SNOW DEPTH (IN):0     24 HR SNOWFALL (IN):0.0  24 HR MAX TEMP (F): 8124 HR MIN TEMP (F): 61AVERAGE STATION PRESSURE:29.035 MINIMUM SEA LEVEL PRESSURE:30.02 TIME OF OCCURRENCE:1907 PEAK WIND SPEED (MPH): 18 PEAK WIND DIR (DEG):150 PEAK WIND TIME (LST):      FASTEST 2MIN SPEED (MPH): 14FASTEST 2MIN DIR (DEG):150 FASTEST 2MIN TIME (LST):     AVERAGE WIND SPEED (MPH): 6.7 24 HR AVG TEMP (F): 71DEPART FROM NORMAL:  1  HEATING DEGREE DAYS:  0 COOLING DEGREE DAYS:  6 LATEST DAY MAX TEMP (0700-1900 LST):81  LATEST NIGHT MIN TEMP(1900-0800 LST):61 HOURLY INCREMENTAL PRECIPITATION VALUES (IN):.00 0.00 0.00 0.00 0.00 0.00 0.00 0.00 0.00 0.00 0.00 0.00 0.00 0.00 0.00 0.00 0.00 0.00 0.00 0.00 0.00 0.00 0.00 0.00","SOD  ","6",,,,,,,,,,,,,,,,,,,,,,,,,"0537","1932",,"2007-03-27"
"72219013874","2020-05-16T00:52:00","FM-15","7",,,,,,,,,,,,,,,,,,,,,,,,,,,,,,,,,,,,,,"30.05","56","68","0.00",,"+0.02","8","65","30.03","SCT:04 250","28.95","10.00","61","110",,"5",,,,,,,,,,,,,,,,,,,,,,,,,,,,,,,,,,,,,"MET11605/16/20 00:52:02 METAR KATL 160552Z 11004KT 10SM SCT250 20/13 A3005 RMK AO2 SLP168 T02000133 10256 20194 58008 (DB)","FM-15","7",,,,,,,,,,,,,,,,,,,,,,,,,,,,"2007-03-27"
"72219013874","2020-05-16T01:00:00","FM-12","4",,,,,,,,,,,,,,,,,,,,,,,,,,,,,,,,,,,,,,,"56","68",,,"+0.02","8","65","30.03",,"28.95","9.94","61","110",,"5",,,,,,,,,,,,,,,,,,,,,,,,,,,,,,,,,,,,,"SYN08072219 32966 41104 10200 20133 39802 40168 58008 90552 333 10256 20161 555 91606=","FM-12","4",,,,,,,,,,,,,,,,,,,,,,,,,,,,"2007-03-27"
"72219013874","2020-05-16T01:52:00","FM-15","7",,,,,,,,,,,,,,,,,,,,,,,,,,,,,,,,,,,,,,"30.04","56","67","0.00",,,,"68","30.01","SCT:04 250","28.94","10.00","61","000",,"0",,,,,,,,,,,,,,,,,,,,,,,,,,,,,,,,,,,,,"MET09805/16/20 01:52:02 METAR KATL 160652Z 00000KT 10SM SCT250 19/13 A3004 RMK AO2 SLP163 T01940133 (DB)","FM-15","7",,,,,,,,,,,,,,,,,,,,,,,,,,,,"2007-03-27"
"72219013874","2020-05-16T02:52:00","FM-15","7",,,,,,,,,,,,,,,,,,,,,,,,,,,,,,,,,,,,,,"30.04","57","66","0.00",,,,"73","30.01","SCT:04 250","28.94","10.00","61","120",,"5",,,,,,,,,,,,,,,,,,,,,,,,,,,,,,,,,,,,,"MET09805/16/20 02:52:02 METAR KATL 160752Z 12004KT 10SM SCT250 19/14 A3004 RMK AO2 SLP164 T01890139 (DB)","FM-15","7",,,,,,,,,,,,,,,,,,,,,,,,,,,,"2007-03-27"
"72219013874","2020-05-16T03:52:00","FM-15","7",,,,,,,,,,,,,,,,,,,,,,,,,,,,,,,,,,,,,,"30.05","57","64","0.00",,"-0.00","3","78","30.03","SCT:04 250","28.95","10.00","60","140",,"3",,,,,,,,,,,,,,,,,,,,,,,,,,,,,,,,,,,,,"MET10405/16/20 03:52:02 METAR KATL 160852Z 14003KT 10SM SCT250 18/14 A3005 RMK AO2 SLP169 T01780139 53001 (DB)","FM-15","7",,,,,,,,,,,,,,,,,,,,,,,,,,,,"2007-03-27"
"72219013874","2020-05-16T04:52:00","FM-15","7",,,,,,,,,,,,,,,,,,,,,,,,,,,,,,,,,,,,,,"30.06","58","64","0.00",,,,"81","30.03","FEW:02 200 SCT:04 250","28.96","10.00","60","000",,"0",,,,,,,,,,,,,,,,,,,,,,,,,,,,,,,,,,,,,"MET10705/16/20 04:52:02 METAR KATL 160952Z 00000KT 10SM FEW200 SCT250 18/14 A3006 RMK AO2 SLP169 T01780144 $ (DB)","FM-15","7",,,,,,,,,,,,,,,,,,,,,,,,,,,,"2007-03-27"
"72219013874","2020-05-16T05:52:00","FM-15","7",,,,,,,,,,,,,,,,,,,,,,,,,,,,,,,,,,,,,,"30.06","58","63","0.00",,,,"84","30.03","FEW:02 12 FEW:02 200 SCT:04 250","28.96","10.00","60","090",,"3",,,,,,,,,,,,,,,,,,,,,,,,,,,,,,,,,,,,,"MET11405/16/20 05:52:02 METAR KATL 161052Z 09003KT 10SM FEW012 FEW200 SCT250 17/14 A3006 RMK AO2 SLP171 T01720144 $ (DB)","FM-15","7",,,,,,,,,,,,,,,,,,,,,,,,,,,,"2007-03-27"
"72219013874","2020-05-16T06:43:00","FM-16","7",,,,,,,,,,,,,,,,,,,,,,,,,,,,,,,,,,,,,,"30.09","60","65",,,,,"84",,"FEW:02 6 SCT:04 49 SCT:04 250","28.99","10.00","62","000",,"0",,,,,,,,,,,,,,,,,,,,,,,,,,,,,,,,,,,,,"MET10705/16/20 06:43:02 SPECI KATL 161143Z 00000KT 10SM FEW006 SCT049 SCT250 18/16 A3009 RMK AO2 T01830156 $ (DB)","FM-16","7",,,,,,,,,,,,,,,,,,,,,,,,,,,,"2007-03-27"
"72219013874","2020-05-16T06:52:00","FM-15","7",,,,,,,,,,,,,,,,,,,,,,,,,,,,,,,,,,,,,,"30.09","60","65","0.00",,"-0.03","3","84","30.06","FEW:02 6 SCT:04 49 BKN:07 250","28.99","9.00","62","130",,"3",,,,,,,,,,,,,,,,,,,,,,,,,,,,,,,,,,,,,"MET13105/16/20 06:52:02 METAR KATL 161152Z 13003KT 9SM FEW006 SCT049 BKN250 18/16 A3009 RMK AO2 SLP180 T01830156 10200 20172 53010 $ (DB)","FM-15","7",,,,,,,,,,,,,,,,,,,,,,,,,,,,"2007-03-27"
"72219013874","2020-05-16T07:00:00","FM-12","4",,,,,,,,,,,,,,,,,,,,,,,,,,,,,,,,,,,,,,,"60","65",,,"-0.03","3","84","30.06","5","28.98","8.70","62","130",,"3",,,,,,,,,,,,,,,,,,,,,,,,,,,,,,,,,,,,,"SYN08072219 32264 61303 10183 20156 39815 40180 53010 91152 333 10272 20172 555 91612=","FM-12","4",,,,,,,,,,,,,,,,,,,,,,,,,,,,"2007-03-27"
"72219013874","2020-05-16T07:52:00","FM-15","7",,,,,,,,,,,,,,,,,,,,,,,,,,,,,,,,,,,,,,"30.08","62","69","0.00",,,,"78","30.05","FEW:02 50 FEW:02 250","28.98","10.00","65","160",,"5",,,,,,,,,,,,,,,,,,,,,,,,,,,,,,,,,,,,,"MET10705/16/20 07:52:02 METAR KATL 161252Z 16004KT 10SM FEW050 FEW250 21/17 A3008 RMK AO2 SLP177 T02060167 $ (DB)","FM-15","7",,,,,,,,,,,,,,,,,,,,,,,,,,,,"2007-03-27"
"72219013874","2020-05-16T08:52:00","FM-15","7",,,,,,,,,,,,,,,,,,,,,,,,,,,,,,,,,,,,,,"30.09","61","72","0.00",,,,"68","30.06","SCT:04 50 SCT:04 250","28.99","10.00","65","150",,"9",,,,,,,,,,,,,,,,,,,,,,,,,,,,,,,,,,,,,"MET10705/16/20 08:52:02 METAR KATL 161352Z 15008KT 10SM SCT050 SCT250 22/16 A3009 RMK AO2 SLP180 T02220161 $ (KM)","FM-15","7",,,,,,,,,,,,,,,,,,,,,,,,,,,,"2007-03-27"
"72219013874","2020-05-16T09:52:00","FM-15","7",,,,,,,,,,,,,,,,,,,,,,,,,,,,,,,,,,,,,,"30.07","61","76","0.00",,"+0.01","8","60","30.05","SCT:04 50 SCT:04 120 SCT:04 250","28.97","10.00","67","VRB",,"5",,,,,,,,,,,,,,,,,,,,,,,,,,,,,,,,,,,,,"MET12005/16/20 09:52:02 METAR KATL 161452Z VRB04KT 10SM SCT050 SCT120 SCT250 24/16 A3007 RMK AO2 SLP176 T02440161 58004 $ (KM)","FM-15","7",,,,,,,,,,,,,,,,,,,,,,,,,,,,"2007-03-27"
"72219013874","2020-05-16T10:52:00","FM-15","7",,,,,,,,,,,,,,,,,,,,,,,,,,,,,,,,,,,,,,"30.07","59","78","0.00",,,,"52","30.05","SCT:04 41 SCT:04 60 BKN:07 120","28.97","10.00","66","120",,"7",,,,,,,,,,,,,,,,,,,,,,,,,,,,,,,,,,,,,"MET11405/16/20 10:52:02 METAR KATL 161552Z 12006KT 10SM SCT041 SCT060 BKN120 26/15 A3007 RMK AO2 SLP175 T02560150 $ (KM)","FM-15","7",,,,,,,,,,,,,,,,,,,,,,,,,,,,"2007-03-27"
"72219013874","2020-05-16T11:52:00","FM-15","7",,,,,,,,,,,,,,,,,,,,,,,,,,,,,,,,,,,,,,"30.07","58","79","0.00",,,,"49","30.04","SCT:04 43 SCT:04 60 BKN:07 120","28.97","10.00","66","060",,"10",,,,,,,,,,,,,,,,,,,,,,,,,,,,,,,,,,,,,"MET11405/16/20 11:52:02 METAR KATL 161652Z 06009KT 10SM SCT043 SCT060 BKN120 26/14 A3007 RMK AO2 SLP173 T02610144 $ (KM)","FM-15","7",,,,,,,,,,,,,,,,,,,,,,,,,,,,"2007-03-27"
"72219013874","2020-05-16T12:52:00","FM-15","7",,,,,,,,,,,,,,,,,,,,,,,,,,,,,,,,,,,,,,"30.05","58","83","0.00",,"+0.02","8","43","30.02","SCT:04 55 BKN:07 250","28.95","10.00","67","140",,"9",,,,,,,,,,,,,,,,,,,,,,,,,,,,,,,,,,,,,"MET12505/16/20 12:52:02 METAR KATL 161752Z 14008KT 10SM SCT055 BKN250 28/14 A3005 RMK AO2 SLP167 T02830144 10283 20183 58008 $ (KM)","FM-15","7",,,,,,,,,,,,,,,,,,,,,,,,,,,,"2007-03-27"
"72219013874","2020-05-16T13:00:00","FM-12","4",,,,,,,,,,,,,,,,,,,,,,,,,,,,,,,,,,,,,,,"58","83",,,"+0.02","8","43","30.02","57","28.95","9.94","67","140",,"9",,,,,,,,,,,,,,,,,,,,,,,,,,,,,,,,,,,,,"SYN08072219 32766 61408 10283 20144 39802 40167 58008 91752 333 10283 20183 555 91618=","FM-12","4",,,,,,,,,,,,,,,,,,,,,,,,,,,,"2007-03-27"
"72219013874","2020-05-16T13:52:00","FM-15","7",,,,,,,,,,,,,,,,,,,,,,,,,,,,,,,,,,,,,,"30.02","57","83","0.00",,,,"41","30.00","SCT:04 55 BKN:07 250","28.92","10.00","67","100",,"11",,,,,,,,,,,,,,,,,,,,,,,,,,,,,,,,,,,,,"MET10705/16/20 13:52:02 METAR KATL 161852Z 10010KT 10SM SCT055 BKN250 28/14 A3002 RMK AO2 SLP158 T02830139 $ (KM)","FM-15","7",,,,,,,,,,,,,,,,,,,,,,,,,,,,"2007-03-27"
"72219013874","2020-05-16T14:52:00","FM-15","7",,,,,,,,,,,,,,,,,,,,,,,,,,,,,,,,,,,,,,"30.01","57","84","0.00",,,,"40","29.98","SCT:04 60 SCT:04 250","28.91","10.00","67","VRB",,"9",,,,,,,,,,,,,,,,,,,,,,,,,,,,,,,,,,,,,"MET10705/16/20 14:52:02 METAR KATL 161952Z 11008KT 10SM SCT060 SCT250 29/14 A3001 RMK AO2 SLP153 T02890139 $ (KM)","FM-15","7",,,,,,,,,,,,,,,,,,,,,,,,,,,,"2007-03-27"
"72219013874","2020-05-16T15:52:00","FM-15","7",,,,,,,,,,,,,,,,,,,,,,,,,,,,,,,,,,,,,,"29.99","55","83","0.00",,"+0.06","6","38","29.96","SCT:04 60 SCT:04 250","28.89","10.00","66","110",,"10",,,,,,,,,,,,,,,,,,,,,,,,,,,,,,,,,,,,,"MET11305/16/20 15:52:02 METAR KATL 162052Z 11009KT 10SM SCT060 SCT250 28/13 A2999 RMK AO2 SLP147 T02830128 56019 $ (KM)","FM-15","7",,,,,,,,,,,,,,,,,,,,,,,,,,,,"2007-03-27"
"72219013874","2020-05-16T16:52:00","FM-15","7",,,,,,,,,,,,,,,,,,,,,,,,,,,,,,,,,,,,,,"29.99","55","82","0.00",,,,"40","29.97","SCT:04 60 BKN:07 300","28.89","10.00","65","120",,"7",,,,,,,,,,,,,,,,,,,,,,,,,,,,,,,,,,,,,"MET10805/16/20 16:52:02 METAR KATL 162152Z 12006KT 10SM SCT060 BKN300 28/13 A2999 RMK AO2 SLP148 T02780128 $ (CPS)","FM-15","7",,,,,,,,,,,,,,,,,,,,,,,,,,,,"2007-03-27"
"72219013874","2020-05-16T17:52:00","FM-15","7",,,,,,,,,,,,,,,,,,,,,,,,,,,,,,,,,,,,,,"29.99","56","82","0.00",,,,"41","29.96","SCT:04 60 BKN:07 300","28.89","10.00","66","120",,"8",,,,,,,,,,,,,,,,,,,,,,,,,,,,,,,,,,,,,"MET10805/16/20 17:52:02 METAR KATL 162252Z 12007KT 10SM SCT060 BKN300 28/13 A2999 RMK AO2 SLP147 T02780133 $ (CPS)","FM-15","7",,,,,,,,,,,,,,,,,,,,,,,,,,,,"2007-03-27"
"72219013874","2020-05-16T18:52:00","FM-15","7",,,,,,,,,,,,,,,,,,,,,,,,,,,,,,,,,,,,,,"29.97","56","80","0.00",,"+0.02","8","44","29.95","FEW:02 60 BKN:07 300","28.87","10.00","65","120",,"11",,,,,,,,,,,,,,,,,,,,,,,,,,,,,,,,,,,,,"MET12605/16/20 18:52:02 METAR KATL 162352Z 12010KT 10SM FEW060 BKN300 27/13 A2997 RMK AO2 SLP142 T02670133 10294 20267 58006 $ (CPS)","FM-15","7",,,,,,,,,,,,,,,,,,,,,,,,,,,,"2007-03-27"
"72219013874","2020-05-16T19:00:00","FM-12","4",,,,,,,,,,,,,,,,,,,,,,,,,,,,,,,,,,,,,,,"56","80",,,"+0.02","8","44","29.95","57","28.87","9.94","65","120",,"11",,,,,,,,,,,,,,,,,,,,,,,,,,,,,,,,,,,,,"SYN08072219 32766 61210 10267 20133 39775 40142 58006 92352 333 10294 20172 555 91700=","FM-12","4",,,,,,,,,,,,,,,,,,,,,,,,,,,,"2007-03-27"
"72219013874","2020-05-16T19:52:00","FM-15","7",,,,,,,,,,,,,,,,,,,,,,,,,,,,,,,,,,,,,,"29.99","57","78","0.00",,,,"48","29.96","FEW:02 65 BKN:07 300","28.89","10.00","65","120",,"7",,,,,,,,,,,,,,,,,,,,,,,,,,,,,,,,,,,,,"MET10205/16/20 19:52:01 METAR KATL 170052Z 12006KT 10SM FEW065 BKN300 26/14 A2999 RMK AO2 SLP146 T02560139 $","FM-15","7",,,,,,,,,,,,,,,,,,,,,,,,,,,,"2007-03-27"
"72219013874","2020-05-16T20:52:00","FM-15","7",,,,,,,,,,,,,,,,,,,,,,,,,,,,,,,,,,,,,,"30.01","58","76","0.00",,,,"54","29.98","FEW:02 65 BKN:07 300","28.91","10.00","65","120",,"5",,,,,,,,,,,,,,,,,,,,,,,,,,,,,,,,,,,,,"MET10205/16/20 20:52:01 METAR KATL 170152Z 12004KT 10SM FEW065 BKN300 24/14 A3001 RMK AO2 SLP154 T02440144 $","FM-15","7",,,,,,,,,,,,,,,,,,,,,,,,,,,,"2007-03-27"
"72219013874","2020-05-16T21:52:00","FM-15","7",,,,,,,,,,,,,,,,,,,,,,,,,,,,,,,,,,,,,,"30.02","59","75","0.00",,"-0.05","1","58","30.00","FEW:02 70 BKN:07 300","28.92","10.00","65","120",,"6",,,,,,,,,,,,,,,,,,,,,,,,,,,,,,,,,,,,,"MET10805/16/20 21:52:01 METAR KATL 170252Z 12005KT 10SM FEW070 BKN300 24/15 A3002 RMK AO2 SLP158 T02390150 51017 $","FM-15","7",,,,,,,,,,,,,,,,,,,,,,,,,,,,"2007-03-27"
"72219013874","2020-05-16T22:52:00","FM-15","7",,,,,,,,,,,,,,,,,,,,,,,,,,,,,,,,,,,,,,"30.03","59","74","0.00",,,,"60","30.01","BKN:07 300","28.93","10.00","65","120",,"3",,,,,,,,,,,,,,,,,,,,,,,,,,,,,,,,,,,,,"MET09505/16/20 22:52:02 METAR KATL 170352Z 12003KT 10SM BKN300 23/15 A3003 RMK AO2 SLP161 T02330150 $","FM-15","7",,,,,,,,,,,,,,,,,,,,,,,,,,,,"2007-03-27"
"72219013874","2020-05-16T23:52:00","FM-15","7",,,,,,,,,,,,,,,,,,,,,,,,,,,,,,,,,,,,,,"30.02","59","71","0.00",,,,"66","29.99","BKN:07 250","28.92","10.00","64","100",,"5",,,,,,,,,,,,,,,,,,,,,,,,,,,,,,,,,,,,,"MET10505/16/20 23:52:02 METAR KATL 170452Z 10004KT 10SM BKN250 22/15 A3002 RMK AO2 SLP157 T02170150 402940172 $","FM-15","7",,,,,,,,,,,,,,,,,,,,,,,,,,,,"2007-03-27"
"72219013874","2020-05-16T23:59:00","SOD  ","6",,,,,,,,,,,,,,,"58","74","59","30.01","28.94","64","6.1","9","3.9","0","85","63","110","18","0.00","0","0.0","100","14",,,,,,,,,,,,,,,,,,,,,,,,,,,,,,,,,,,,,,,,,,,,,,,,,,,,,,,,,"SOD73924 HR PRECIPITATION (IN): 0.00 SNOW DEPTH (IN):0     24 HR SNOWFALL (IN):0.0  24 HR MAX TEMP (F): 8524 HR MIN TEMP (F): 63AVERAGE STATION PRESSURE:28.940 MINIMUM SEA LEVEL PRESSURE:29.94 TIME OF OCCURRENCE:1843 PEAK WIND SPEED (MPH): 18 PEAK WIND DIR (DEG):110 PEAK WIND TIME (LST):      FASTEST 2MIN SPEED (MPH): 14FASTEST 2MIN DIR (DEG):100 FASTEST 2MIN TIME (LST):     AVERAGE WIND SPEED (MPH): 6.1 24 HR AVG TEMP (F): 74DEPART FROM NORMAL:  4  HEATING DEGREE DAYS:  0 COOLING DEGREE DAYS:  9 LATEST DAY MAX TEMP (0700-1900 LST):85  LATEST NIGHT MIN TEMP(1900-0800 LST):63 HOURLY INCREMENTAL PRECIPITATION VALUES (IN):.00 0.00 0.00 0.00 0.00 0.00 0.00 0.00 0.00 0.00 0.00 0.00 0.00 0.00 0.00 0.00 0.00 0.00 0.00 0.00 0.00 0.00 0.00 0.00","SOD  ","6",,,,,,,,,,,,,,,,,,,,,,,,,"0536","1933",,"2007-03-27"
